{"type":"FeatureCollection","features":[{"type":"Feature","id":"maakunta4500k.1","geometry":{"type":"MultiPolygon","coordinates":[[[[471700.2411,6689530.3601],[473959.3318,6689550.363],[474499.1073,6691039.7662],[474049.2826,6692219.2892],[472140.0488,6692689.0909],[470030.8897,6694328.4208],[468671.4369,6694318.4183],[467921.743,6693418.7767],[468081.6838,6692369.1999],[469141.2653,6690719.8689],[471700.2411,6689530.3601]]],[[[457297.5911,6685632.9151],[459706.6215,6685652.9188],[460306.3764,6686402.62],[459696.613,6688201.8929],[458337.1521,6689851.2225],[456637.8348,6690101.1137],[456118.0447,6689951.1715],[455338.3715,6687282.2418],[457297.5911,6685632.9151]]],[[[451300.0254,6681404.5874],[453399.1798,6681564.5333],[454148.8745,6682314.2353],[453838.9882,6684563.3286],[452939.3465,6685313.0225],[450980.1357,6685153.0773],[449480.7428,6684393.3757],[449030.9275,6683643.6752],[449330.8113,6682744.0387],[451300.0254,6681404.5874]]],[[[409166.9981,6677266.0447],[411875.9068,6677585.9294],[413225.3587,6678635.5139],[413515.2346,6680144.9081],[412605.5969,6680884.606],[410356.5017,6680874.5989],[408397.2929,6680264.8345],[407047.841,6679205.2541],[406897.9035,6678755.4343],[407357.723,6677855.7985],[409166.9981,6677266.0447]]],[[[424081.0126,6674347.2929],[425730.3489,6674357.297],[426330.1032,6675256.938],[427079.7896,6677665.9725],[427219.7252,6679315.3095],[426909.8432,6680664.7651],[425700.3217,6682314.0955],[424180.9139,6686202.5236],[423271.2791,6686352.4588],[422511.5898,6685322.8693],[422471.618,6682853.8624],[422891.4573,6681194.5321],[423151.3589,6679945.0361],[423321.3108,6675846.6858],[424081.0126,6674347.2929]]],[[[440194.5323,6673206.889],[441843.8656,6673816.6517],[442593.5573,6675166.1124],[441673.9148,6677715.0822],[439414.8202,6678454.7734],[437905.4291,6678144.8906],[436106.1575,6677235.2478],[435056.5873,6675725.85],[434916.6495,6674526.3319],[435066.5907,6674226.4533],[436276.1085,6673326.8213],[440194.5323,6673206.889]]],[[[418663.1991,6672967.821],[420322.5293,6673427.6442],[420912.2831,6675226.9233],[420892.2718,6679135.3507],[419992.6286,6680174.928],[419082.9945,6680174.9235],[418333.2999,6679415.2255],[417503.6475,6676616.3474],[417913.4971,6673707.5197],[418663.1991,6672967.821]]],[[[327679.9075,6649536.7854],[330248.868,6650856.2681],[333697.473,6652535.6106],[334597.1052,6653735.1329],[334747.0396,6654784.7117],[334137.2816,6655384.4675],[330528.7302,6655814.2763],[327370.0085,6654144.9313],[325620.7269,6651176.1158],[325140.9219,6650776.2741],[325690.7032,6650326.4578],[327679.9075,6649536.7854]]],[[[297472.0943,6640920.0934],[299881.1259,6640940.0978],[302130.2142,6642449.5028],[303789.5449,6642909.3266],[305138.9954,6644268.7871],[304829.1138,6645468.3034],[302120.2027,6645448.2974],[300620.8108,6644388.7156],[298511.6593,6644228.769],[297012.2674,6643169.1871],[296412.5139,6642119.6058],[297472.0943,6640920.0934]]],[[[272652.0888,6637031.5271],[276410.5721,6638251.0566],[277760.0267,6638860.8186],[280618.8755,6639330.6447],[283477.7273,6639190.7158],[286486.5181,6639210.7234],[288445.7276,6639820.4885],[290544.8769,6641179.9531],[291425.52572601,6642067.94982074],[292943.9003,6643598.9933],[293233.7752,6645248.3319],[293483.6713,6645918.0641],[294433.2769,6648407.0686],[294873.0969,6649016.8258],[295782.7306,6649166.7703],[297132.1836,6650076.4116],[299091.3961,6650086.4177],[300600.7956,6648896.9035],[303309.7145,6647407.5161],[306328.4995,6647727.4031],[306778.3172,6648027.2849],[309177.3513,6648347.1686],[310986.6263,6647897.3587],[313995.4161,6648067.3059],[315054.9862,6648827.006],[315494.8056,6649576.7069],[314735.0979,6652125.6784],[315034.9727,6653025.3183],[315484.7896,6653485.1357],[317134.1273,6653345.2004],[318943.4023,6652895.3905],[320902.6139,6653065.3322],[322152.1069,6653984.9689],[322649.22366786,6654237.26818943],[324811.0312,6655334.44],[330068.9051,6657763.4903],[334727.0247,6659292.8992],[337735.8149,6659312.9064],[343153.6373,6659192.9821],[344812.9686,6659492.87],[346312.3627,6660102.6324],[348368.94703088,6661183.77504729],[348841.3391,6661432.1107],[349321.1452,6661622.0367],[350220.7827,6661781.977],[352239.9653,6662861.5531],[353211.131,6663179.187],[353739.3703,6661312.1837],[352489.8854,6658793.1902],[352499.8891,6657283.7972],[352949.7112,6656694.0366],[354459.1035,6656843.984],[357307.9465,6659113.086],[358357.5244,6659123.0873],[359417.1036,6658073.5147],[359277.1652,6657023.9361],[358977.2888,6656424.1757],[355378.7543,6652795.6166],[355228.8192,6651895.9776],[355688.6389,6650996.3417],[357038.0954,6651156.2842],[359737.0001,6653125.5061],[363635.4087,6657803.6446],[368303.5016,6663711.2925],[368643.3514,6666400.2128],[368175.2436,6667886.0641],[368242.629,6670403.578],[369303.0659,6670438.5921],[370212.7045,6669548.9544],[371112.3487,6668349.4413],[372621.7409,6668509.3846],[376530.1592,6670478.6122],[379079.1303,6671248.3154],[379820.93480564,6671252.39496796],[380898.3985,6671258.3205],[381118.3103,6671208.3417],[381638.1018,6671108.3845],[382247.8595,6670508.6288],[384367.0169,6668569.4193],[386466.1719,6668729.3655],[387825.6228,6669189.1874],[390674.4641,6671758.1683],[391124.2847,6671458.2912],[391124.2899,6670408.7133],[391134.2971,6668159.618],[392043.9342,6667559.8638],[393243.451,6667719.8055],[394892.7793,6669379.1463],[395492.5312,6670738.6025],[394872.7626,6674337.1519],[395472.5184,6674936.9136],[397431.7332,6674347.1606],[398941.126,6674357.1641],[399810.7726,6675086.8749],[400326.7544,6678305.8591],[402069.8368,6680534.6947],[402737.69091811,6680700.30869839],[408237.3483,6682064.1099],[409746.7389,6682523.9324],[412305.7094,6682533.941],[413965.0448,6681944.1865],[416234.1323,6681864.2298],[417073.7937,6682024.1696],[417824.3476937,6682541.60245376],[418393.2584,6682933.8102],[418733.12,6683273.6751],[419162.9451,6683683.5124],[419892.6453,6684943.0092],[420252.4849,6688131.7281],[420852.2369,6689491.1841],[423411.2073,6689501.1927],[424310.8431,6689961.0121],[425520.3572,6689821.0743],[426270.0585,6689221.3193],[426729.8794,6688021.8041],[427189.7062,6685622.7716],[428409.2273,6683223.7429],[430978.204,6681134.5961],[432187.7239,6679795.141],[434136.9388,6679955.0862],[435936.2045,6682064.2464],[436535.9609,6682524.0643],[437745.4742,6682524.0703],[439404.8183,6680135.0398],[440164.5119,6680284.9832],[440464.3889,6680744.7996],[439844.6207,6684343.3485],[438934.9764,6686432.5034],[439374.7906,6688241.7776],[440124.486,6688841.5399],[440762.53809759,6688441.80075347],[441783.8234,6687801.9663],[442423.578,6685352.9549],[442863.4147,6682554.0834],[443413.1934,6682564.082],[445122.5056,6682564.0904],[445722.2605,6683323.7877],[445862.1954,6685123.0643],[445092.4919,6687821.9745],[446142.0659,6688581.6739],[448561.0997,6687092.2851],[450820.1891,6687402.1714],[451419.944,6688161.8686],[451260.0011,6689661.2644],[448231.2017,6693389.7493],[447011.6728,6697438.1143],[445492.2733,6699687.2019],[443672.9894,6702975.8697],[444422.6783,6704935.085],[445622.1978,6704485.2718],[447591.4162,6702246.1823],[451829.7317,6697917.9446],[453639.0101,6696578.4924],[455158.4154,6693129.8876],[456068.0544,6692090.3104],[457117.6327,6691940.3758],[458537.0486,6694599.3126],[459066.8322,6695259.0497],[459496.6403,6699157.4829],[459796.5167,6699767.2389],[460696.151,6700516.9416],[462155.5648,6700287.0411],[462505.4242,6700227.067],[464324.7073,6697088.339],[465234.347,6695888.8261],[466893.6791,6695898.8302],[470154.1474,6699315.0368],[471818.38814132,6700238.27603171],[471700.599,6701373.312],[469660.843,6706380.052],[473171.244,6710238.94],[472605.358,6712262.216],[475008.681,6713299.022],[474886.715,6715538.614],[470378.484,6722709.768],[470374.758,6722711.326],[464319.416,6725243.27],[464319.385,6725243.283],[464314.039,6725245.518],[464312.711,6725246.074],[464312.17,6725248.226],[464307.342,6725267.454],[461849.399,6735056.552],[461849.104,6735056.613],[456859.196,6736092.179],[456859.041,6736092.211],[457124.509,6731441.88],[457124.658,6731439.279],[451349.21,6728185.135],[446949.958,6731617.598],[441787.77,6730507.194],[441787.769,6730507.2],[441787.282,6730508.902],[440828.446,6733856.824],[440828.325,6733856.786],[431598.603,6730923.09],[431598.461,6730923.015],[424096.839,6726998.038],[419174.539,6730717.412],[418325.502,6737278.782],[414724.928,6741021.646],[411827.672,6736406.795],[407242.505,6736361.608],[402662.436,6746389.445],[397258.069,6744059.536],[399519.499,6739515.226],[394084.197,6733721.417],[398844.389,6732634.254],[396836.372,6726576.903],[392674.162,6729306.24],[381696.299,6727565.336],[376423.919,6725649.768],[369728.766,6728123.905],[366906.824,6724299.31],[367281.278,6719098.267],[365623.834,6716265.571],[358726.22,6715710.045],[357796.233,6720555.231],[354830.592,6722516.944],[351205.054,6717453.114],[348814.75,6723424.072],[338515.195,6726577.401],[334371.929,6726306.184],[330561.662,6727772.87],[331428.893,6722861.159],[327002.246,6717531.525],[328244.548,6712063.462],[320774.171,6710467.086],[320684.927,6706752.062],[323117.104,6705869.091],[323127.585,6698912.221],[319314.378,6696972.814],[319409.151,6692532.305],[311139.037,6685125.451],[312658.828,6677827.908],[309001.264,6678917.712],[298119.962,6673665.522],[295198.34,6678153.616],[285913.262,6668838.274],[279458.40547674,6668830.06547343],[278109.7591,6663480.9272],[277360.0673,6662131.4656],[277679.9603,6657923.1582],[277080.2051,6657173.4564],[275120.9924,6657163.4504],[272720.1149,6657449.4887],[270742.745,6658452.9097],[269433.2704,6658602.8428],[268823.5215,6657403.3216],[268733.5719,6654644.4297],[270472.8826,6652785.1857],[271532.4662,6650985.9141],[272741.9879,6649496.5188],[275001.0801,6649506.5265],[277110.2325,6649516.5334],[279519.2652,6649376.602],[280568.8388,6650286.2419],[281018.6534,6651185.8827],[281008.6396,6654644.4928],[280998.639,6655544.1313],[281898.269,6657203.4691],[282947.8449,6657653.2937],[283547.6069,6657063.5338],[284157.3673,6656013.9587],[284467.2535,6653914.8039],[283737.57,6649406.6118],[283503.86624027,6648692.85543767],[282997.8789,6647147.5158],[281338.5527,6645788.0535],[277590.0661,6644418.5844],[272931.9474,6642589.2953],[270972.7393,6641679.6506],[269473.3504,6640020.3095],[270542.9347,6637321.3996],[272652.0888,6637031.5271]]]]},"geometry_name":"geom","properties":{"id":1,"maakunta":"01","vuosi":2026,"nimi":"Uusimaa","namn":"Nyland","name":"Uusimaa"},"bbox":[268733.5719,6637031.5271,475008.681,6746389.445]},{"type":"Feature","id":"maakunta4500k.2","geometry":{"type":"MultiPolygon","coordinates":[[[[187645.7558,6730243.6583],[189295.0936,6730253.6625],[190194.7235,6732062.9406],[188174.1743,6737313.9874],[187005.9697,6738950.1601],[186106.3323,6738640.2801],[185056.7589,6737580.7003],[184457.0063,6736231.239],[184616.948,6735031.7213],[185976.417,6732032.9318],[187645.7558,6730243.6583]]],[[[187385.9108,6720027.7581],[188745.3642,6720187.7006],[189335.1237,6720947.3986],[189025.2347,6723646.3136],[187505.8276,6727084.9257],[184936.8433,6730223.653],[184187.1464,6729773.8298],[183887.2705,6729024.1293],[184047.216,6727074.9125],[184966.8729,6721817.0278],[185726.5739,6720627.5091],[187385.9108,6720027.7581]]],[[[194861.7156,6717798.092],[196521.0494,6717808.0962],[197270.7447,6718557.7989],[198010.438,6720517.016],[198230.3407,6722316.2947],[197550.6062,6723815.6894],[194971.6216,6727854.0553],[192402.6448,6729493.3845],[190903.2549,6727834.0433],[190313.5029,6725574.9472],[190773.3309,6723025.9728],[192902.4925,6719737.3037],[194861.7156,6717798.092]]],[[[180658.6648,6709332.0181],[182018.1182,6709491.9607],[183057.6881,6712050.9386],[183047.6816,6714150.0959],[181988.1017,6715199.6693],[180938.5245,6714889.7884],[180188.83,6713990.1458],[179739.0166,6712780.6291],[179599.0803,6711281.2303],[179749.0224,6710831.4116],[180658.6648,6709332.0181]]],[[[200840.5681,6708242.5567],[203089.6642,6708412.4998],[204738.9952,6709771.9622],[206238.3796,6712480.882],[205468.6752,6715179.7945],[204718.977,6715019.855],[202020.0689,6713360.5078],[200480.6953,6711691.1703],[200840.5681,6708242.5567]]],[[[191814.2013,6706393.2539],[192413.9604,6706403.2529],[193613.4713,6707902.6569],[194053.2857,6709711.9328],[193593.4538,6713010.6061],[192833.7558,6713610.3616],[191034.4804,6713150.5372],[190274.7884,6712540.7782],[189834.9695,6711641.1371],[189984.9168,6710141.7398],[191204.4438,6706843.0702],[191814.2013,6706393.2539]]],[[[188665.4798,6703524.3898],[189555.1135,6705333.6679],[188195.6465,6707872.6418],[186986.1275,6708772.2745],[185476.7358,6708312.4516],[184307.2164,6706103.3325],[185046.9288,6704254.0786],[186856.2054,6703664.3245],[188665.4798,6703524.3898]]],[[[209307.2121,6699586.075],[212166.0626,6699905.961],[212755.8197,6701105.4823],[212905.7527,6702454.9412],[211846.1684,6704404.1531],[210486.7098,6705293.7891],[206568.2803,6705873.5366],[206418.3465,6704674.0175],[206278.411,6703024.6791],[207337.9946,6701225.4069],[209307.2121,6699586.075]]],[[[221212.4554,6694848.0377],[222571.9079,6695157.9201],[223771.4216,6696067.5609],[224521.1152,6697117.1431],[225700.6181,6701775.2783],[225240.787,6704924.0115],[220992.4639,6710761.646],[220612.6118,6711691.2708],[220242.7597,6711811.2208],[220092.8186,6712071.1156],[219632.9994,6712850.8003],[218573.4144,6714949.952],[217513.8347,6715999.5253],[216154.3798,6716139.4624],[214804.9262,6715229.8209],[214215.1713,6713570.4843],[214075.2402,6711021.5071],[214325.1433,6710341.7813],[216354.3535,6705333.8024],[219073.2729,6703094.7152],[220132.8534,6701895.2022],[219982.9189,6700845.623],[218793.4102,6698136.7048],[218953.352,6696937.1873],[219713.0553,6695287.8535],[221212.4554,6694848.0377]]],[[[191034.592,6691019.4221],[191574.3735,6691379.2804],[192773.888,6692138.9815],[193973.3973,6693948.2612],[193963.3876,6696647.1776],[193353.6294,6697246.9337],[192004.1712,6697236.9309],[189755.0841,6695277.706],[188405.6396,6692568.7867],[189015.4009,6691369.2714],[191034.592,6691019.4221]]],[[[199871.0636,6687220.9922],[202430.036,6687240.9972],[203929.4263,6688750.3987],[204229.3013,6689650.039],[204069.3572,6691299.3759],[201190.4881,6696237.3787],[200280.851,6696687.1934],[198181.7023,6695017.8531],[198201.717,6690519.6592],[198661.5446,6688120.6248],[199271.3013,6687820.7483],[199871.0636,6687220.9922]]],[[[189645.184,6684312.1079],[192354.0948,6684631.9933],[193563.6061,6685241.7547],[194303.3007,6686891.0962],[194443.2315,6689450.0695],[193983.41,6690649.5856],[193533.5899,6690789.5271],[189265.3059,6690319.6941],[188565.5868,6690309.6945],[186006.6043,6692248.903],[184347.2705,6692238.8985],[183447.6377,6691039.3755],[182857.8921,6687580.761],[183167.7739,6686381.2441],[185726.7519,6685341.6745],[189645.184,6684312.1079]]],[[[236626.3245,6683072.8449],[239185.2967,6683082.8539],[240834.6258,6684742.1957],[242623.8964,6686861.3536],[244583.1041,6687920.9379],[246672.2527,6690329.9807],[248621.4553,6693198.8382],[251020.4795,6695607.8825],[251470.2943,6696517.5194],[250637.9273,6697836.1355],[249791.2191,6698422.3181],[248879.3794,6698682.8437],[247902.4084,6699203.895],[246332.3425,6699636.2409],[243933.3107,6698726.5942],[241674.2241,6697517.0687],[240474.7075,6697207.1872],[236256.4018,6697187.174],[232337.9704,6698206.7448],[230538.6969,6697447.0409],[229829.0056,6692748.9242],[231168.481,6690099.9948],[234187.2746,6688910.4879],[234637.0961,6688470.6668],[234497.1607,6686811.3325],[234357.2246,6685311.9341],[234817.0467,6683962.4784],[236626.3245,6683072.8449]]],[[[222791.8988,6679544.1917],[226250.5097,6679564.2013],[227599.9623,6680623.7826],[229249.2861,6683332.7031],[229389.2208,6685131.9811],[228179.702,6686031.6137],[226680.3057,6685721.7305],[223071.7642,6683902.4428],[222322.0676,6683442.6237],[221572.3748,6682243.1016],[221422.4423,6680803.6789],[222791.8988,6679544.1917]]],[[[208347.7157,6676315.4145],[210456.8687,6676325.4212],[210606.807,6676625.3016],[211726.3527,6677534.942],[213755.5233,6680393.8044],[215104.9767,6681303.446],[217963.8232,6682373.031],[219003.4004,6683422.6148],[219153.3341,6684632.1299],[218243.6948,6685521.768],[217044.1735,6686121.521],[214475.2029,6686551.3354],[211166.5309,6686681.2664],[209967.0156,6686081.5011],[208917.4462,6684272.2223],[207737.9537,6677654.8735],[208347.7157,6676315.4145]]],[[[197212.1896,6675795.566],[200220.9814,6675815.5735],[201880.3128,6676275.3973],[203379.703,6677784.799],[204869.0842,6681843.177],[205308.8938,6684552.0915],[204549.1904,6686201.4254],[202739.9169,6686191.4202],[200330.8904,6684971.8976],[196582.4124,6681653.2109],[195392.9031,6679094.2323],[195242.9702,6677744.7733],[195702.791,6676695.1971],[197212.1896,6675795.566]]],[[[222062.2187,6674286.2996],[222961.8559,6674586.1838],[223861.4868,6676095.5822],[222951.8468,6677145.156],[221122.5768,6678044.7854],[219023.4146,6679074.3612],[216764.3211,6679214.2934],[214815.1085,6678294.6528],[213765.5369,6676945.1893],[213255.7409,6677085.1305],[213925.4803,6675445.7923],[214835.1181,6674846.0378],[218143.7916,6674416.2273],[222062.2187,6674286.2996]]],[[[236415.5701,6674174.9371],[237315.2064,6674634.757],[239274.4125,6675994.2209],[241663.4383,6678863.0807],[241963.3102,6680362.4799],[241353.5498,6681412.0552],[240603.8487,6681851.8748],[238644.6372,6681541.9893],[236985.3068,6680932.2258],[234286.4032,6678513.1837],[232946.9527,6676254.0843],[234306.4165,6674314.8702],[236415.5701,6674174.9371]]],[[[279458.40547674,6668830.06547343],[285913.262,6668838.274],[295198.34,6678153.616],[298119.962,6673665.522],[309001.264,6678917.712],[312658.828,6677827.908],[311139.037,6685125.451],[319409.151,6692532.305],[319314.378,6696972.814],[323127.585,6698912.221],[323117.104,6705869.091],[320684.927,6706752.062],[320774.171,6710467.086],[328244.548,6712063.462],[327002.246,6717531.525],[331428.893,6722861.159],[330561.662,6727772.87],[318782.759,6729183.198],[309356.367,6739351.631],[304237.405,6739157.851],[296901.865,6736363.869],[290626.556,6743768.628],[295059.644,6749230.72],[290386.608,6750853.006],[290311.611,6755994.397],[297451.456,6756204.328],[299342.652,6763417.689],[294311.243,6768899.488],[291954.503,6772407.834],[282345.246,6774309.421],[274959.606,6781270.399],[273760.975,6769282.367],[267534.562,6768963.192],[257779.821,6768440.944],[260943.87,6764023.99],[243395.267,6763918.679],[237353.515,6758229.25],[235893.98,6761936.978],[228110.673,6762167.036],[226929.748,6770748.484],[221421.513,6774809.228],[217953.144,6777848.471],[211671.977,6774130.133],[209781.948,6780489.404],[205768.204,6777303.71],[200824.412,6777301.306],[195021.28962429,6785895.39505051],[194322.8068,6785821.3803],[193723.0489,6785521.4979],[192973.3534,6784771.7953],[192833.416,6783412.3403],[194822.6488,6776824.994],[198151.3347,6772186.8718],[198461.2196,6770237.6558],[198011.4031,6769627.8984],[197561.5837,6769627.8962],[197524.64456911,6769664.34894613],[196801.8851,6770377.5917],[194522.7792,6774715.8393],[193313.259,6775915.352],[193023.3754,6775905.3546],[191963.7979,6776505.1088],[190904.2233,6776495.1078],[189254.8911,6775285.5854],[189564.7731,6773936.1286],[190924.2338,6772596.6728],[191374.0576,6771697.036],[191384.0622,6769897.7583],[190634.3682,6768838.1801],[186725.9379,6768668.2296],[185976.2424,6767918.5269],[186586.0048,6766419.1317],[187645.5846,6765369.5581],[190354.5058,6763580.2893],[191114.2015,6763440.3492],[192133.795,6762860.5868],[192323.7225,6762090.8967],[192023.8465,6761341.1962],[190824.3309,6760731.4352],[189924.7015,6758782.2133],[190694.4041,6756383.1801],[191014.3034,6750675.4728],[192233.824,6748586.3174],[192543.7084,6746787.0412],[192103.8974,6744228.0664],[192563.7297,6740779.453],[194672.9008,6737150.9201],[195342.6427,6734961.8022],[195719.44811497,6733723.74901882],[195972.4,6732892.636],[196972.0101,6730593.5639],[198331.4709,6729254.1084],[200150.7464,6728054.5989],[201810.0906,6725965.4459],[202429.8573,6722816.7131],[203649.3826,6719817.9232],[206508.2361,6719538.0498],[207707.7507,6720297.7507],[207707.747,6721047.4497],[208597.3764,6723756.3664],[209027.1853,6727504.8635],[211147.5671447,6729163.23343739],[211596.1439,6729514.0694],[211846.0427,6729703.9944],[212785.662,6730383.726],[214631.53915626,6731191.67664677],[215914.399,6731753.1915],[216694.086,6731753.1954],[217593.7284,6731003.5008],[217603.7348,6728894.3478],[217552.7562,6728687.4306],[217259.17813647,6727013.73764112],[217072.8297,6725951.3624],[215674.5331,6724096.2649],[214670.2384502,6724322.90982978],[213105.5617,6724676.0194],[211906.0494,6723466.4992],[210716.5351,6721817.1555],[209816.9105,6718958.299],[209676.975,6717298.9646],[210886.4908,6717009.087],[212086.0061,6717618.8481],[213735.3393,6718528.491],[215544.6128,6718538.496],[215914.465,6718398.554],[216754.1293,6718088.6826],[220362.6742,6719318.2068],[221325.48158703,6719430.44071149],[221992.019,6719508.1386],[223061.5889,6719628.0957],[224271.1061,6719038.3385],[225526.2454,6718165.3217],[225892.17612331,6717547.26525621],[226690.1488,6716199.4906],[227000.0325,6714550.1545],[226400.2771,6713790.4566],[224900.8793,6713780.4531],[223391.4832,6714230.265],[222791.7323,6712570.9284],[223401.4934,6711371.4131],[224311.1318,6710631.7147],[225670.5919,6709432.2032],[227020.0506,6709292.2661],[227779.7441,6709592.1495],[228519.4417,6710651.7276],[229429.0726,6711411.4271],[230398.6853,6710991.6005],[230771.46075462,6710377.25007414],[231310.1614,6709489.4476],[231248.3584,6708112.7609],[230208.7955,6704204.3254],[230518.677,6703004.8087],[231118.4392,6702405.0526],[232178.0151,6702115.1743],[233677.4136,6701975.238],[235346.7499,6700625.7884],[237481.3838,6699985.4718],[239565.5887,6700767.0487],[241254.39850232,6701558.67825686],[241649.7936,6701744.0197],[242757.0275,6702004.5453],[244255.0498,6702330.2023],[245818.2035,6702460.4651],[247772.1456,6702851.2536],[248944.5108,6702786.1222],[250840.5153,6702904.9504],[251260.3464,6702964.9284],[252339.9119,6703124.8696],[253999.2476,6702685.0545],[255358.7074,6701495.5392],[255457.6511,6700245.9974],[255261.63955811,6699429.28259197],[255066.8627,6698617.7123],[253308.3148,6695556.5364],[250898.4529,6690932.2068],[250768.1901,6689564.4473],[251650.259,6689160.4756],[255558.6881,6689330.4271],[257677.8451,6687691.0963],[259337.1822,6686951.4018],[263395.5502,6687271.2938],[266104.4573,6688190.938],[269263.1798,6689860.2832],[270612.6308,6691219.7437],[272432.554,6692499.31],[276160.3799,6695598.0124],[280358.6795,6698326.9369],[281568.1972,6697577.2442],[281768.1175,6697457.2934],[281878.0839,6695328.1494],[280598.6129,6692349.3399],[279639.0047,6691119.8292],[276950.1025,6687651.2094],[273313.4123,6682170.2128],[272621.232,6680489.2035],[271722.2508,6678164.9945],[272072.121,6676045.8477],[275070.9246,6674376.5337],[275830.6229,6673676.8187],[276710.2755,6672487.3011],[278669.4905,6672047.4878],[279279.2493,6671297.7921],[279539.1533,6669638.4602],[279589.1347,6669348.577],[279458.40547674,6668830.06547343]]],[[[273153.1074,6667369.0318],[274812.4398,6667528.976],[276161.893,6668438.6174],[276461.7687,6669188.3177],[276301.8268,6670387.8349],[275542.126,6671587.3491],[273742.849,6671577.3439],[272093.5186,6670217.8818],[271533.7493,6669078.3368],[272103.5268,6667808.8498],[273153.1074,6667369.0318]]],[[[270442.8576,6659992.2897],[272991.8272,6661201.8168],[273591.5823,6661961.5146],[273431.6351,6664210.6101],[271772.2904,6666449.7019],[271312.4736,6666749.5791],[270262.8961,6666589.638],[268763.5063,6665080.2368],[267983.8289,6663250.9677],[268663.5682,6660821.9472],[270442.8576,6659992.2897]]],[[[260730.5066,6659116.3486],[262239.8978,6659576.1716],[264199.1022,6661215.523],[264179.098,6663604.5631],[264179.094,6664394.2458],[265368.6045,6666653.3442],[268037.5179,6669462.2293],[268667.2615,6670121.9674],[269936.7408,6672221.1304],[269097.0644,6674930.0378],[267877.5369,6678378.646],[268917.1071,6680777.6874],[271755.9454,6684956.0229],[271755.9392,6686185.5289],[269047.0286,6685985.5956],[263639.2094,6684356.223],[253413.3284,6682197.0387],[251004.2962,6682187.0306],[249185.018,6683976.3026],[248735.1987,6683976.3003],[247685.6279,6682466.9013],[247245.816,6680207.8066],[245746.4283,6678248.586],[246056.3084,6677348.949],[247565.7066,6676459.314],[247715.6583,6674110.2584],[247425.7804,6673010.6986],[246826.0252,6672251.0007],[243227.4823,6669981.8939],[241878.0313,6668622.433],[241428.2173,6667572.8523],[241148.3498,6663664.4209],[242967.6367,6660225.8115],[244177.154,6659626.0587],[246136.3684,6659336.1852],[248685.3428,6659656.0699],[251984.0107,6661015.5407],[254103.16,6660885.6038],[258021.5942,6659256.2785],[260730.5066,6659116.3486]]],[[[209807.2514,6652754.8832],[210706.8816,6654404.2255],[210836.8067,6658762.476],[209327.4059,6660101.9303],[208417.7712,6660101.9256],[207668.0754,6659492.1665],[206478.5664,6656933.1879],[206078.7292,6656503.3585],[206788.4575,6653934.3938],[207848.0375,6652884.8208],[209807.2514,6652754.8832]]],[[[240994.2232,6651228.9108],[243253.3149,6651388.8583],[244162.9479,6651698.7385],[244902.6461,6652598.3809],[244892.6361,6655307.2927],[244442.8106,6656506.8085],[243233.2911,6657546.3847],[241873.8372,6657536.3817],[240974.2017,6656936.6179],[240074.5678,6656026.9787],[239334.8766,6653767.8823],[239944.6409,6651978.6042],[240994.2232,6651228.9108]]],[[[256606.331,6651122.1546],[257805.8467,6651581.976],[258105.7231,6652181.7366],[257945.7804,6653531.1936],[257186.0794,6654730.7078],[255376.7978,6656370.0399],[253117.7015,6657109.7311],[251158.4894,6656949.7852],[250258.8563,6655890.2062],[250418.7998,6654390.8094],[251478.3827,6652741.4775],[253437.6017,6651551.9655],[256606.331,6651122.1546]]],[[[242664.1064,6642869.0252],[245832.8334,6642889.0337],[247782.0456,6643798.6785],[250331.0105,6645917.8404],[250630.8862,6646667.5408],[250620.8847,6647717.1191],[249571.3025,6648466.8124],[246712.4518,6648296.8659],[244753.2436,6647387.2211],[242654.0963,6645577.937],[242054.3427,6644518.3595],[241914.4028,6643768.6599],[242664.1064,6642869.0252]]],[[[196902.4873,6642468.946],[197962.0602,6642778.8272],[200361.0905,6643988.3541],[201560.6009,6645497.7543],[200800.8966,6647297.0278],[198391.8639,6647287.0192],[195682.9588,6645917.5549],[194643.3834,6644558.0953],[194493.4468,6643958.3353],[194643.3889,6643508.5167],[195403.0886,6642608.8819],[196902.4873,6642468.946]]]]},"geometry_name":"geom","properties":{"id":2,"maakunta":"02","vuosi":2026,"nimi":"Varsinais-Suomi","namn":"Egentliga Finland","name":"Southwest Finland"},"bbox":[179599.0803,6642468.946,331428.893,6785895.39505051]},{"type":"Feature","id":"maakunta4500k.3","geometry":{"type":"MultiPolygon","coordinates":[[[[204918.2927,6842328.7463],[207777.1444,6842498.6909],[208986.6568,6842948.5158],[209886.2916,6843858.1547],[209876.2882,6845507.4925],[209116.5871,6846856.9474],[207607.185,6848646.2224],[206697.5427,6850295.5562],[205787.9045,6851045.2512],[205338.0851,6851035.2532],[204908.2602,6850465.48],[204448.4611,6846826.9385],[202799.1279,6845767.3564],[203408.8912,6843978.0774],[204918.2927,6842328.7463]]],[[[197301.5678,6794997.7108],[198201.2067,6795007.711],[199100.8413,6795907.3541],[199320.7489,6796796.998],[199400.7153,6797116.8699],[199540.6493,6799216.0279],[197821.3336,6800465.5183],[196971.6757,6800255.5986],[196072.041,6799345.9596],[195782.1616,6798446.3193],[195932.107,6797246.8016],[196541.8707,6795447.5267],[197301.5678,6794997.7108]]],[[[237353.515,6758229.25],[243395.267,6763918.679],[260943.87,6764023.99],[257779.821,6768440.944],[267534.562,6768963.192],[273760.975,6769282.367],[274959.606,6781270.399],[282345.246,6774309.421],[283959.59,6778162.734],[280639.54,6785440.994],[281615.645,6792413.385],[277639.413,6796110.485],[266428.884,6798044.509],[264362.048,6804367.733],[262460.383,6807729.462],[263748.329,6815011.608],[256997.689,6825762.4],[265331.352,6831822.259],[271736.938,6837141.473],[272349.674,6839794.226],[273597.562,6842067.542],[271945.638,6845525.215],[269868.088,6848072.825],[272227.794,6848590.898],[272629.757,6852498.621],[277644.238,6854132.246],[280289.516,6860650.004],[279042.454,6864236.324],[278572.568,6866949.817],[276267.698,6871570.627],[271747.796,6876503.156],[265604.691,6882061.381],[279532.37,6888121.838],[279725.49,6898572.869],[284575.913,6900287.774],[283701.696,6911326.951],[273716.601,6915336.617],[271593.882,6916626.569],[267352.98,6905639.789],[263397.842,6904604.612],[258966.185,6898659.253],[255859.251,6894485.423],[249539.259,6894974.367],[244232.829,6887379.314],[236801.933,6882124.138],[225346.628,6887071.612],[220077.099,6887919.971],[208432.048,6887784.308],[203075.98776532,6883478.80820084],[203428.7133,6882342.6781],[203568.6587,6881992.8191],[204308.3698,6880153.5606],[206117.6461,6879563.8052],[207627.0494,6877474.6504],[208406.7594,6872226.7603],[209316.4061,6869527.8477],[210985.7433,6867888.5131],[211445.5673,6865939.2976],[210845.8101,6865479.4796],[207677.0808,6865769.3492],[206777.4472,6864559.8307],[207237.2686,6863210.3745],[209206.4874,6861121.2218],[210715.8888,6859471.8906],[211629.0963328,6857054.16872067],[211935.4136,6856243.1921],[211955.4286,6851075.2668],[211815.4935,6849126.0486],[212425.2575,6847176.8338],[213184.9586,6845827.379],[216223.7669,6839539.9168],[216383.7088,6838190.4592],[215024.2553,6838030.5173],[213974.6746,6838480.332],[210046.2368,6841758.9981],[208836.7224,6841748.9966],[208087.0281,6840699.4146],[207947.0897,6839489.8995],[209156.6177,6836501.1048],[209926.3189,6834252.0111],[212485.2991,6832612.6808],[212945.1206,6831263.2247],[212645.243,6830813.4039],[210995.9052,6830803.4004],[207667.2319,6832892.5466],[206167.8339,6832882.5438],[205568.0788,6831972.9063],[205568.0815,6831373.147],[206477.7232,6829873.7531],[208296.9983,6828684.2389],[209946.3395,6827944.5433],[211315.7973,6826305.2077],[211625.6804,6824655.8712],[211175.8631,6824196.0537],[209666.469,6824196.0469],[208906.7737,6824266.0153],[208366.79059715,6824316.27719744],[205148.2808,6824615.8577],[204708.4656,6822816.5779],[206827.6349,6818468.3332],[207897.2214,6815019.7225],[207767.2915,6811121.287],[207347.4673,6809561.911],[206127.9685,6807052.9126],[206127.9733,6806003.3339],[207037.6144,6804663.8759],[207197.5578,6803014.5388],[205248.3432,6802394.7785],[204038.8253,6803144.4719],[202829.3102,6803284.4101],[202229.553,6802834.5879],[201881.69213046,6801372.25351918],[201689.7803,6800565.4963],[201769.7494,6800295.605],[201949.6801,6799675.8546],[201239.9805,6796357.1835],[201090.0444,6795577.4958],[200910.1213,6794567.9003],[200890.1327,6793848.1891],[200780.1961,6789759.8298],[200190.442,6787810.6095],[199940.5448,6787280.821],[199140.874,6785551.5114],[198701.0527,6785101.6899],[197441.559,6784941.7482],[196891.7797,6784941.7456],[196671.867,6785151.6603],[195832.2001,6785981.3232],[195021.28962429,6785895.39505051],[200824.412,6777301.306],[205768.204,6777303.71],[209781.948,6780489.404],[211671.977,6774130.133],[217953.144,6777848.471],[221421.513,6774809.228],[226929.748,6770748.484],[228110.673,6762167.036],[235893.98,6761936.978],[237353.515,6758229.25]]]]},"geometry_name":"geom","properties":{"id":3,"maakunta":"04","vuosi":2026,"nimi":"Satakunta","namn":"Satakunta","name":"Satakunta"},"bbox":[195021.28962429,6758229.25,284575.913,6916626.569]},{"type":"Feature","id":"maakunta4500k.4","geometry":{"type":"Polygon","coordinates":[[[358726.22,6715710.045],[365623.834,6716265.571],[367281.278,6719098.267],[366906.824,6724299.31],[369728.766,6728123.905],[376423.919,6725649.768],[381696.299,6727565.336],[392674.162,6729306.24],[396836.372,6726576.903],[398844.389,6732634.254],[394084.197,6733721.417],[399519.499,6739515.226],[397258.069,6744059.536],[397251.575,6749240.891],[396647.61,6755267.619],[393094.362,6756355.692],[393495.338,6767837.503],[400270.848,6771210.613],[405156.381,6776822.41],[406441.67,6784737.811],[403543.819,6790950.967],[394254.442,6791800.016],[392300.783,6795110.942],[390255.708,6797156.017],[388341.3,6800758.633],[383440.364,6795461.565],[378562.461,6800257.078],[377133.035,6795284.15],[370046.948,6799056.205],[355196.889,6791753.407],[354730.834,6787129.876],[351222.859,6782799.339],[336054.713,6777952],[324952.559,6773513.092],[326711.239,6769836.393],[327809.259,6767047.899],[329878.266,6763698.908],[328776.641,6760201.18],[322286.219,6768255.124],[313441.239,6766750.483],[309143.035,6763855.071],[303420.561,6769865.451],[297912.327,6770626.756],[294311.243,6768899.488],[299342.652,6763417.689],[297451.456,6756204.328],[290311.611,6755994.397],[290386.608,6750853.006],[295059.644,6749230.72],[290626.556,6743768.628],[296901.865,6736363.869],[304237.405,6739157.851],[309356.367,6739351.631],[318782.759,6729183.198],[330561.662,6727772.87],[334371.929,6726306.184],[338515.195,6726577.401],[348814.75,6723424.072],[351205.054,6717453.114],[354830.592,6722516.944],[357796.233,6720555.231],[358726.22,6715710.045]]]},"geometry_name":"geom","properties":{"id":4,"maakunta":"05","vuosi":2026,"nimi":"Kanta-Häme","namn":"Egentliga Tavastland","name":"Kanta-Häme"},"bbox":[290311.611,6715710.045,406441.67,6800758.633]},{"type":"Feature","id":"maakunta4500k.5","geometry":{"type":"Polygon","coordinates":[[[328776.641,6760201.18],[329878.266,6763698.908],[327809.259,6767047.899],[326711.239,6769836.393],[324952.559,6773513.092],[336054.713,6777952],[351222.859,6782799.339],[354730.834,6787129.876],[355196.889,6791753.407],[370046.948,6799056.205],[377133.035,6795284.15],[378562.461,6800257.078],[383440.364,6795461.565],[388341.3,6800758.633],[386004.133,6817676.617],[391802.732,6814673.992],[416789.253,6818020.26],[420429.018,6832599.334],[420678.769,6839096.004],[422729.752,6850493.619],[416178.333,6847939.183],[413979.945,6843292.71],[395263.851,6850736.808],[389676.252,6843251.025],[391889.348,6834729.064],[384140.798,6838254.77],[380243.861,6842149.361],[379852.07,6848322.915],[385011.119,6850500.343],[377255.891,6861121.622],[369984.957,6866558.109],[375397.616,6875632.581],[381259.133,6878840.604],[373009.646,6897253.956],[369833.795,6898652.126],[365958.247,6893853.113],[361261.513,6895753.215],[355176.866,6905410.076],[348523.117,6908389.531],[345455.368,6918226.112],[341008.871,6921479.901],[339469.468,6929262.181],[336977.473,6933246.544],[327654.949,6924153.087],[319415.82,6925258.907],[317245.323,6922242.407],[310933.466,6926894.948],[304153.954,6917135.548],[300261.951,6915694.297],[292281.129,6912796.944],[283701.696,6911326.951],[284575.913,6900287.774],[279725.49,6898572.869],[279532.37,6888121.838],[265604.691,6882061.381],[271747.796,6876503.156],[276267.698,6871570.627],[278572.568,6866949.817],[279042.454,6864236.324],[280289.516,6860650.004],[277644.238,6854132.246],[272629.757,6852498.621],[272227.794,6848590.898],[269868.088,6848072.825],[271945.638,6845525.215],[273597.562,6842067.542],[272349.674,6839794.226],[271736.938,6837141.473],[265331.352,6831822.259],[256997.689,6825762.4],[263748.329,6815011.608],[262460.383,6807729.462],[264362.048,6804367.733],[266428.884,6798044.509],[277639.413,6796110.485],[281615.645,6792413.385],[280639.54,6785440.994],[283959.59,6778162.734],[282345.246,6774309.421],[291954.503,6772407.834],[294311.243,6768899.488],[297912.327,6770626.756],[303420.561,6769865.451],[309143.035,6763855.071],[313441.239,6766750.483],[322286.219,6768255.124],[328776.641,6760201.18]]]},"geometry_name":"geom","properties":{"id":5,"maakunta":"06","vuosi":2026,"nimi":"Pirkanmaa","namn":"Birkaland","name":"Pirkanmaa"},"bbox":[256997.689,6760201.18,422729.752,6933246.544]},{"type":"Feature","id":"maakunta4500k.6","geometry":{"type":"Polygon","coordinates":[[[424096.839,6726998.038],[431598.461,6730923.015],[431598.603,6730923.09],[440828.325,6733856.786],[440828.446,6733856.824],[441787.282,6730508.902],[441787.769,6730507.2],[441787.77,6730507.194],[446949.958,6731617.598],[451349.21,6728185.135],[457124.658,6731439.279],[457124.509,6731441.88],[456859.041,6736092.211],[456859.196,6736092.179],[461849.104,6735056.613],[461849.399,6735056.552],[461850.024,6735056.75],[465911.79,6736341.409],[466200.093,6741287.426],[473441.11,6745133.465],[475299.528,6749932.349],[473201.22,6763979.869],[466839.051,6766033.176],[464639.057,6763016.282],[460305.906,6764308.612],[460459.918,6770786.289],[462858.51,6774862.664],[458764.596,6777509.207],[466960.144,6783898.544],[469145.508,6790937.15],[473923.367,6793440.746],[472325.886,6798856.739],[467854.81,6798804.117],[463557.53,6804291.851],[460772.728,6810440.832],[461606.118,6822833.076],[463664.516,6830753.345],[462028.369,6836146.618],[457185.449,6835460.267],[454267.839,6832099.924],[449947.341,6845396.168],[446150.804,6846437.748],[443126.909,6850962.418],[439110.805,6852598.036],[434977.032,6839710.96],[430753.738,6843031.205],[426355.357,6839397.129],[420678.769,6839096.004],[420429.018,6832599.334],[416789.253,6818020.26],[391802.732,6814673.992],[386004.133,6817676.617],[388341.3,6800758.633],[390255.708,6797156.017],[392300.783,6795110.942],[394254.442,6791800.016],[403543.819,6790950.967],[406441.67,6784737.811],[405156.381,6776822.41],[400270.848,6771210.613],[393495.338,6767837.503],[393094.362,6756355.692],[396647.61,6755267.619],[397251.575,6749240.891],[397258.069,6744059.536],[402662.436,6746389.445],[407242.505,6736361.608],[411827.672,6736406.795],[414724.928,6741021.646],[418325.502,6737278.782],[419174.539,6730717.412],[424096.839,6726998.038]]]},"geometry_name":"geom","properties":{"id":6,"maakunta":"07","vuosi":2026,"nimi":"Päijät-Häme","namn":"Päijänne-Tavastland","name":"Päijät-Häme"},"bbox":[386004.133,6726998.038,475299.528,6852598.036]},{"type":"Feature","id":"maakunta4500k.7","geometry":{"type":"MultiPolygon","coordinates":[[[[495632.0955,6699207.6371],[496531.7326,6699367.577],[498031.126,6699977.3387],[499080.6984,6701026.9212],[499530.5115,6702236.4365],[498910.7452,6705535.1055],[499950.3095,6709143.6578],[501299.02313228,6710372.49751537],[503099.0282,6712012.5178],[504648.4027,6712382.3763],[505657.9951,6712622.2845],[508576.8289,6710753.051],[513494.8548,6709513.5734],[513704.7703,6709513.5744],[514704.3678,6709523.5751],[515753.9466,6709223.7009],[521851.36415082,6708079.23187834],[521931.4648,6708064.1972],[523760.7476,6704015.836],[525420.0822,6703426.0814],[525669.981,6703556.0302],[526019.8393,6703725.9635],[527809.1059,6706444.8772],[529608.3756,6707654.3987],[531877.4675,6706464.8885],[537595.1649,6706494.9036],[538494.7997,6707104.6623],[539994.1873,6708913.9408],[542496.6743,6711086.4861],[542496.94302022,6711086.09968519],[542496.9,6711086.9],[546467.4,6714232.8],[545950.7,6716129.9],[547825.1,6719059.5],[548651.097,6720005.144],[554169.941,6726326.842],[549245.441,6729308.127],[547619.318,6732264.804],[546373.838,6736931.505],[543196.006,6737341.418],[539642.06,6736586.392],[538858.65,6740202.117],[532977.917,6741313.207],[527469.948,6740530.869],[523282.6,6745336.095],[517612.562,6750506.185],[511567.171,6752118.872],[507372.925,6757364.722],[513081.494,6759824.753],[507631.866,6763970.443],[508131.991,6769735.267],[512322.995,6772856.064],[511075.037,6780901.795],[501677.656,6779725.218],[495275.032,6783192.165],[495744.612,6787935.336],[492083.258,6794395.281],[481801.4,6785877.967],[482347.689,6789964.483],[480372.85,6794826.709],[473923.367,6793440.746],[469145.508,6790937.15],[466960.144,6783898.544],[458764.596,6777509.207],[462858.51,6774862.664],[460459.918,6770786.289],[460305.906,6764308.612],[464639.057,6763016.282],[466839.051,6766033.176],[473201.22,6763979.869],[475299.528,6749932.349],[473441.11,6745133.465],[466200.093,6741287.426],[465911.79,6736341.409],[461850.024,6735056.75],[461849.399,6735056.552],[464307.342,6725267.454],[464312.17,6725248.226],[464312.711,6725246.074],[464314.039,6725245.518],[464319.385,6725243.283],[464319.416,6725243.27],[470374.758,6722711.326],[470378.484,6722709.768],[474886.715,6715538.614],[475008.681,6713299.022],[472605.358,6712262.216],[473171.244,6710238.94],[469660.843,6706380.052],[471700.599,6701373.312],[471818.38814132,6700238.27603171],[472771.29,6700766.8993],[473620.9458,6701216.7223],[475140.333,6701496.617],[477399.4236,6701506.6238],[479348.6318,6703026.0217],[480558.1449,6703026.0275],[483127.1202,6701096.8164],[485836.0297,6701106.8254],[488085.1142,6703225.9832],[489434.5688,6703675.8086],[490494.1437,6703385.9303],[491303.41078316,6702423.9301334],[493512.9457,6699797.3894],[494312.6249,6699577.4818],[495632.0955,6699207.6371]]],[[[477779.3047,6694469.4582],[480288.2847,6696568.6254],[482237.4942,6697788.1439],[482077.5513,6699287.5396],[480868.0339,6700177.1757],[478758.8829,6700167.1695],[476829.6674,6698507.8281],[476069.9765,6697818.1021],[474950.4346,6696268.7203],[476659.7532,6694909.2757],[477779.3047,6694469.4582]]],[[[504528.5412,6693549.9576],[505278.2335,6694759.4743],[504348.5732,6701956.5722],[503888.7562,6702406.3889],[502989.1184,6702406.3846],[502389.3642,6701496.748],[501799.6124,6699247.6506],[501649.6786,6698038.1368],[501809.6192,6696988.5601],[502729.2627,6694139.7115],[503329.0234,6693699.8915],[504528.5412,6693549.9576]]],[[[488295.0964,6689411.5451],[489794.4927,6689421.5484],[490544.1866,6690321.1899],[490694.1219,6691220.8284],[490234.2997,6692720.2226],[488574.9611,6694069.6714],[486025.9967,6692100.4517],[485876.0607,6691350.7528],[486335.88,6690451.1172],[488295.0964,6689411.5451]]],[[[510156.3326,6681724.7459],[511055.9674,6682334.5048],[512705.3019,6682644.388],[513764.8723,6683244.1517],[513754.872,6684143.7894],[513454.9906,6684593.6068],[511495.7736,6685783.1184],[509986.38,6686072.9944],[508786.8665,6685323.2904],[508037.1742,6684113.7738],[507887.2404,6682914.256],[508497,6681864.6815],[510156.3326,6681724.7459]]]]},"geometry_name":"geom","properties":{"id":7,"maakunta":"08","vuosi":2026,"nimi":"Kymenlaakso","namn":"Kymmenedalen","name":"Kymenlaakso"},"bbox":[458764.596,6681724.7459,554169.941,6794826.709]},{"type":"Feature","id":"maakunta4500k.8","geometry":{"type":"Polygon","coordinates":[[[554169.941,6726326.842],[561910.2,6734459.8],[563951.2,6738701.2],[566459.4,6739212.1],[568434.395,6742262.546],[572577.7,6747292.1],[579445.4,6755136.2],[582565.6,6758970],[589647.6,6758294.4],[591135.7,6761612.9],[592557.9,6768951.3],[595843.841,6772915.996],[597291.9,6774531.2],[598002.6,6777691.7],[601406.6,6780101.1],[605322.7,6781243.5],[606797.8,6783769.1],[608699.025,6785463.269],[611969.414,6788012.02],[620362.3,6795006.7],[624207.9,6803706.4],[630413.055,6812512.125],[633391.6,6816728.6],[632895.9,6820123.9],[637958.1,6820730.4],[640562.4,6824239.4],[645503.5,6829981.5],[646123.081,6833057.221],[648917.4,6836796.6],[649267.5,6838999.4],[660308.3,6851791.4],[661777.2,6857830.9],[665422.818,6861723.23],[662181.473,6861675.648],[635242.406,6845880.073],[634302.975,6841586.113],[627331.158,6837973.341],[622595.771,6832773.599],[620151.114,6827002.29],[603980.674,6824572.057],[596327.952,6823806.064],[595424.474,6817314.955],[589715.42,6817049.628],[582214.657,6816782.492],[576626.611,6820614.718],[576045.059,6814506.169],[566913.4,6805721.647],[549805.424,6802171.894],[542379.233,6803375.649],[540382.265,6799672.642],[534599.948,6801263.658],[531709.761,6797554.231],[530951.313,6792241.092],[523073.983,6793120.781],[520334.347,6786709.482],[519122.677,6782169.927],[511075.037,6780901.795],[512322.995,6772856.064],[508131.991,6769735.267],[507631.866,6763970.443],[513081.494,6759824.753],[507372.925,6757364.722],[511567.171,6752118.872],[517612.562,6750506.185],[523282.6,6745336.095],[527469.948,6740530.869],[532977.917,6741313.207],[538858.65,6740202.117],[539642.06,6736586.392],[543196.006,6737341.418],[546373.838,6736931.505],[547619.318,6732264.804],[549245.441,6729308.127],[554169.941,6726326.842]]]},"geometry_name":"geom","properties":{"id":8,"maakunta":"09","vuosi":2026,"nimi":"Etelä-Karjala","namn":"Södra Karelen","name":"South Karelia"},"bbox":[507372.925,6726326.842,665422.818,6861723.23]},{"type":"Feature","id":"maakunta4500k.9","geometry":{"type":"Polygon","coordinates":[[[501677.656,6779725.218],[511075.037,6780901.795],[519122.677,6782169.927],[520334.347,6786709.482],[523073.983,6793120.781],[530951.313,6792241.092],[531709.761,6797554.231],[534599.948,6801263.658],[540382.265,6799672.642],[542379.233,6803375.649],[549805.424,6802171.894],[566913.4,6805721.647],[576045.059,6814506.169],[576626.611,6820614.718],[582214.657,6816782.492],[589715.42,6817049.628],[595424.474,6817314.955],[596327.952,6823806.064],[603980.674,6824572.057],[620151.114,6827002.29],[622595.771,6832773.599],[627331.158,6837973.341],[634302.975,6841586.113],[635242.406,6845880.073],[641081.744,6853884.046],[641850.718,6862018.777],[637321.821,6867290.204],[639420.601,6874464.818],[629753.474,6882978.749],[626445.571,6894193.259],[626271.814,6902900.183],[620346.808,6911222.714],[618711.242,6919371.21],[615224.056,6922708.652],[612018.017,6919096.63],[612313.37,6913054.212],[603880.838,6912267.078],[600317.407,6904777.746],[590936.648,6907357.79],[592041.831,6899079.316],[585905.795,6901046.669],[583254.79,6891874.44],[578274.261,6897539.476],[572240.425,6898837.522],[554513.792,6900833.999],[555126.886,6897464.353],[553481.163,6893584.51],[556354.164,6887621.067],[548420.613,6883700.346],[549385.665,6881071.772],[545338.107,6878987.191],[545654.414,6875206.721],[541582.97,6873070.756],[534175.036,6877445.242],[532883.421,6891073.612],[529510.269,6890756.743],[528552.112,6897681.116],[527598.786,6904163.73],[532788.792,6905863.228],[535793.999,6916121.358],[521042.272,6930382.162],[517652.973,6930317.487],[511594.191,6927678.736],[509811.356,6925536.014],[505986.178,6928213.639],[502734.776,6927639.862],[497379.525,6927257.344],[493788.071,6928274.445],[489155.391,6924197.201],[484991.471,6924674.438],[483489.126,6919208.534],[488410.363,6913649.456],[482860.032,6912308.661],[483572.48,6908502.157],[480856.838,6905089.233],[479931.242,6898421.003],[476326.06,6903855.184],[470769.386,6898793.211],[464407.337,6896701.058],[459342.968,6887632.55],[465037.534,6878458.625],[469310.883,6871297.97],[464842.603,6867729.014],[464469.635,6861000.713],[467301.63,6861310.393],[467850.329,6858083.904],[466646.517,6852939.703],[471094.853,6849318.25],[474990.739,6841361.132],[474311.498,6832730.575],[467013.913,6836218.059],[463664.516,6830753.345],[461606.118,6822833.076],[460772.728,6810440.832],[463557.53,6804291.851],[467854.81,6798804.117],[472325.886,6798856.739],[473923.367,6793440.746],[480372.85,6794826.709],[482347.689,6789964.483],[481801.4,6785877.967],[492083.258,6794395.281],[495744.612,6787935.336],[495275.032,6783192.165],[501677.656,6779725.218]]]},"geometry_name":"geom","properties":{"id":9,"maakunta":"10","vuosi":2026,"nimi":"Etelä-Savo","namn":"Södra Savolax","name":"South Savo"},"bbox":[459342.968,6779725.218,641850.718,6930382.162]},{"type":"Feature","id":"maakunta4500k.10","geometry":{"type":"Polygon","coordinates":[[[541582.97,6873070.756],[545654.414,6875206.721],[545338.107,6878987.191],[549385.665,6881071.772],[548420.613,6883700.346],[556354.164,6887621.067],[553481.163,6893584.51],[555126.886,6897464.353],[554513.792,6900833.999],[572240.425,6898837.522],[578274.261,6897539.476],[583254.79,6891874.44],[585905.795,6901046.669],[581040.96,6907952.349],[574526.94,6910305.837],[574445.333,6913590.76],[568071.215,6914370.703],[564286.912,6922039.77],[566328.602,6927551.317],[571276.911,6926370.758],[572020.628,6937301.148],[578213.164,6936202.403],[575358.681,6940004.235],[582775.304,6941452.121],[584812.796,6948464.778],[587148.6,6952676.304],[583417.623,6958121.116],[587637.091,6961501.947],[588917.517,6965889.245],[591179.258,6968338.911],[598528.382,6961955.347],[600253.626,6965170.24],[606795.79,6970125.15],[600242.2,6977188.475],[600004.69,6982527.134],[604624.085,6985773.066],[594071.775,6993305.435],[588843.378,7002040.871],[585462.344,7007121.275],[581015.594,7009316.911],[587025.332,7021459.087],[587931.855,7030006.2],[583161.766,7033823.162],[581762.132,7039713.863],[579744.138,7045357.909],[582880.682,7049200.219],[579773.495,7050707.633],[578864.851,7061204.653],[576662.759,7064585.051],[572235.875,7064255.755],[567078.911,7070399.907],[563043.244,7060737.936],[557748.878,7065762.393],[545558.664,7080024.947],[526482.682,7092271.614],[522029.293,7090894.056],[505835.73,7095992.143],[493669.471,7101140.706],[478421.209,7093042.385],[462785.501,7079521.042],[464854.405,7051516.751],[460032.116,7049273.187],[458422.283,7039438.245],[458467.072,7036592.579],[458926.46,7034751.371],[453493.984,7025455.896],[456372.244,7022676.481],[456944.478,7016484.555],[457843.939,7002246.838],[460559.19,6995814.834],[466320.21,6989673.188],[460656.913,6988709.902],[466173.475,6983934.095],[463064.891,6977448.452],[460537.808,6980747.209],[455573.873,6980648.896],[451260.41,6978834.552],[452626.858,6973610.366],[457542.012,6971661.854],[456811.171,6968809.34],[467106.855,6957611.173],[471765.145,6962221.13],[479386.969,6942287.987],[473405.906,6933594.764],[481068.066,6924451.701],[484991.471,6924674.438],[489155.391,6924197.201],[493788.071,6928274.445],[497379.525,6927257.344],[502734.776,6927639.862],[505986.178,6928213.639],[509811.356,6925536.014],[511594.191,6927678.736],[517652.973,6930317.487],[521042.272,6930382.162],[535793.999,6916121.358],[532788.792,6905863.228],[527598.786,6904163.73],[528552.112,6897681.116],[529510.269,6890756.743],[532883.421,6891073.612],[534175.036,6877445.242],[541582.97,6873070.756]]]},"geometry_name":"geom","properties":{"id":10,"maakunta":"11","vuosi":2026,"nimi":"Pohjois-Savo","namn":"Norra Savolax","name":"North Savo"},"bbox":[451260.41,6873070.756,606795.79,7101140.706]},{"type":"Feature","id":"maakunta4500k.11","geometry":{"type":"Polygon","coordinates":[[[635242.406,6845880.073],[662181.473,6861675.648],[665422.818,6861723.23],[668004.8,6865193.1],[668746,6866400.7],[671812.7,6871121.6],[673198.796,6871339.993],[673773.7,6872486.2],[673302.4,6874635.5],[675609.878,6876489.027],[677168.938,6878597.138],[680121.5,6882589.5],[681989.846,6886181.724],[687760.783,6895195.532],[689275.4,6898838.7],[688811.8,6900501.1],[690160.483,6902823.943],[693447.1,6903008.3],[696752.379,6907881.115],[697697.7,6909076.9],[697744.3,6910157.5],[702317.7,6914882.4],[704369.5,6914483.1],[705197.2,6916976.1],[704158.9,6917526.2],[711371.311,6927289.108],[713490.6,6930279.1],[714731.1,6930793.9],[715527.7,6936175.2],[717382.2,6936831.9],[722685.4,6953366.7],[724041.9,6954173.3],[724098.1,6958659.9],[726378.3,6969426.3],[727123.8,6970806.7],[732907.7,6983723.6],[727936.1,6993156.3],[725161.5,6994058.5],[725739.5,6996131.6],[723675.2,6998113.8],[721727.4,6998658.4],[720218,7001115.3],[715479,7004750.2],[714414.404,7008609.681],[714017.153,7012560.12],[713128.42,7014370.859],[713033.4,7017017.1],[709075.8,7019574.7],[707564.2,7021834.3],[704814.993,7023497.605],[701443.5,7025693.3],[699334.4,7026068.8],[696768.7,7031240.5],[692471.2,7032425.8],[689109.1,7036337.4],[673586.4,7042313.5],[668169.6,7050819.3],[661679,7054772.2],[660849.677,7057333.246],[646581.916,7073365.668],[641828.736,7072259.878],[637169.834,7066938.585],[634339.733,7071800.544],[631746.055,7086294.3],[606127.874,7081796.115],[603849.594,7081611.248],[592736.498,7080090.685],[573709.114,7084778.258],[567078.911,7070399.907],[572235.875,7064255.755],[576662.759,7064585.051],[578864.851,7061204.653],[579773.495,7050707.633],[582880.682,7049200.219],[579744.138,7045357.909],[581762.132,7039713.863],[583161.766,7033823.162],[587931.855,7030006.2],[587025.332,7021459.087],[581015.594,7009316.911],[585462.344,7007121.275],[588843.378,7002040.871],[594071.775,6993305.435],[604624.085,6985773.066],[600004.69,6982527.134],[600242.2,6977188.475],[606795.79,6970125.15],[600253.626,6965170.24],[598528.382,6961955.347],[591179.258,6968338.911],[588917.517,6965889.245],[587637.091,6961501.947],[583417.623,6958121.116],[587148.6,6952676.304],[584812.796,6948464.778],[582775.304,6941452.121],[575358.681,6940004.235],[578213.164,6936202.403],[572020.628,6937301.148],[571276.911,6926370.758],[566328.602,6927551.317],[564286.912,6922039.77],[568071.215,6914370.703],[574445.333,6913590.76],[574526.94,6910305.837],[581040.96,6907952.349],[585905.795,6901046.669],[592041.831,6899079.316],[590936.648,6907357.79],[600317.407,6904777.746],[603880.838,6912267.078],[612313.37,6913054.212],[612018.017,6919096.63],[615224.056,6922708.652],[618711.242,6919371.21],[620346.808,6911222.714],[626271.814,6902900.183],[626445.571,6894193.259],[629753.474,6882978.749],[639420.601,6874464.818],[637321.821,6867290.204],[641850.718,6862018.777],[641081.744,6853884.046],[635242.406,6845880.073]]]},"geometry_name":"geom","properties":{"id":11,"maakunta":"12","vuosi":2026,"nimi":"Pohjois-Karjala","namn":"Norra Karelen","name":"North Karelia"},"bbox":[564286.912,6845880.073,732907.7,7086294.3]},{"type":"Feature","id":"maakunta4500k.12","geometry":{"type":"Polygon","coordinates":[[[463664.516,6830753.345],[467013.913,6836218.059],[474311.498,6832730.575],[474990.739,6841361.132],[471094.853,6849318.25],[466646.517,6852939.703],[467850.329,6858083.904],[467301.63,6861310.393],[464469.635,6861000.713],[464842.603,6867729.014],[469310.883,6871297.97],[465037.534,6878458.625],[459342.968,6887632.55],[464407.337,6896701.058],[470769.386,6898793.211],[476326.06,6903855.184],[479931.242,6898421.003],[480856.838,6905089.233],[483572.48,6908502.157],[482860.032,6912308.661],[488410.363,6913649.456],[483489.126,6919208.534],[484991.471,6924674.438],[481068.066,6924451.701],[473405.906,6933594.764],[479386.969,6942287.987],[471765.145,6962221.13],[467106.855,6957611.173],[456811.171,6968809.34],[457542.012,6971661.854],[452626.858,6973610.366],[451260.41,6978834.552],[455573.873,6980648.896],[460537.808,6980747.209],[463064.891,6977448.452],[466173.475,6983934.095],[460656.913,6988709.902],[466320.21,6989673.188],[460559.19,6995814.834],[457843.939,7002246.838],[456944.478,7016484.555],[456372.244,7022676.481],[453493.984,7025455.896],[458926.46,7034751.371],[458467.072,7036592.579],[449823.929,7033795.763],[444765.3,7035052.776],[439004.42,7042516.974],[424539.134,7045824.724],[417999.767,7051437.468],[412982.72,7054781.153],[407657.217,7050922.609],[404408.486,7039073.207],[402107.619,7038128.976],[395339.008,7035351.22],[388595.831,7027489.373],[389814.314,7018219.869],[387296.023,7017190.734],[387722.5,7002395.289],[375623.274,7005527.284],[366787.924,7001300.583],[362458.797,6995675.229],[363260.793,6987161.698],[365541.96,6984316.807],[365064.47,6979207.831],[369641.31,6977920.938],[370211.515,6973788.01],[364744.876,6972700.998],[372356.168,6955798.067],[373036.311,6953044.961],[376149.768,6950563.473],[373255.538,6946491.101],[374738.674,6941856.302],[372926.096,6935477.746],[368249.955,6930732.785],[362483.209,6931740.306],[359907.318,6927395.73],[355768.028,6931075.644],[345455.368,6918226.112],[348523.117,6908389.531],[355176.866,6905410.076],[361261.513,6895753.215],[365958.247,6893853.113],[369833.795,6898652.126],[373009.646,6897253.956],[381259.133,6878840.604],[375397.616,6875632.581],[369984.957,6866558.109],[377255.891,6861121.622],[385011.119,6850500.343],[379852.07,6848322.915],[380243.861,6842149.361],[384140.798,6838254.77],[391889.348,6834729.064],[389676.252,6843251.025],[395263.851,6850736.808],[413979.945,6843292.71],[416178.333,6847939.183],[422729.752,6850493.619],[420678.769,6839096.004],[426355.357,6839397.129],[430753.738,6843031.205],[434977.032,6839710.96],[439110.805,6852598.036],[443126.909,6850962.418],[446150.804,6846437.748],[449947.341,6845396.168],[454267.839,6832099.924],[457185.449,6835460.267],[462028.369,6836146.618],[463664.516,6830753.345]]]},"geometry_name":"geom","properties":{"id":12,"maakunta":"13","vuosi":2026,"nimi":"Keski-Suomi","namn":"Mellersta Finland","name":"Central Finland"},"bbox":[345455.368,6830753.345,488410.363,7054781.153]},{"type":"Feature","id":"maakunta4500k.13","geometry":{"type":"Polygon","coordinates":[[[236801.933,6882124.138],[244232.829,6887379.314],[249539.259,6894974.367],[255859.251,6894485.423],[258966.185,6898659.253],[263397.842,6904604.612],[267352.98,6905639.789],[271593.882,6916626.569],[273716.601,6915336.617],[283701.696,6911326.951],[292281.129,6912796.944],[300261.951,6915694.297],[304153.954,6917135.548],[310933.466,6926894.948],[317245.323,6922242.407],[319415.82,6925258.907],[327654.949,6924153.087],[336977.473,6933246.544],[339469.468,6929262.181],[341008.871,6921479.901],[345455.368,6918226.112],[355768.028,6931075.644],[359907.318,6927395.73],[362483.209,6931740.306],[368249.955,6930732.785],[372926.096,6935477.746],[374738.674,6941856.302],[373255.538,6946491.101],[376149.768,6950563.473],[373036.311,6953044.961],[372356.168,6955798.067],[364744.876,6972700.998],[370211.515,6973788.01],[369641.31,6977920.938],[365064.47,6979207.831],[365541.96,6984316.807],[363260.793,6987161.698],[362458.797,6995675.229],[366787.924,7001300.583],[357452.604,7005219.8],[360769.996,7007607.465],[352036.619,7017751.916],[342611.354,7020368.441],[334929.075,7032219.92],[327811.153,7042330.427],[320481.677,7046141.494],[313922.262,7043392.788],[310586.421,7035650.362],[305165.832,7031400.34],[298653.251,7033398.214],[297027.98,7028587.256],[286772.013,7032681.629],[280240.272,7024528.828],[277939.193,7021755.48],[278742.932,7016933.049],[278943.866,7012914.357],[280966.276,7010093.664],[279630.013,7004441.65],[259700.002,7001591.214],[253892.615,6990776.106],[258524.271,6981138.982],[259059.772,6971163.906],[255005.203,6967040.636],[238086.329,6975083.104],[234172.221,6981191.422],[231118.654,6970711.502],[233606.195,6962292.145],[226534.377,6956810.068],[222606.645,6953265.494],[222504.412,6944931.612],[218977.094,6933299.884],[218593.415,6925888.223],[225167.371,6925052.695],[223586.714,6914542.365],[228152.922,6909981.352],[220952.133,6902377.43],[220077.099,6887919.971],[225346.628,6887071.612],[236801.933,6882124.138]]]},"geometry_name":"geom","properties":{"id":13,"maakunta":"14","vuosi":2026,"nimi":"Etelä-Pohjanmaa","namn":"Södra Österbotten","name":"South Ostrobothnia"},"bbox":[218593.415,6882124.138,376149.768,7046141.494]},{"type":"Feature","id":"maakunta4500k.14","geometry":{"type":"MultiPolygon","coordinates":[[[[282186.3208,7077244.7419],[283085.9595,7077254.7411],[284435.4117,7078914.0796],[284875.2248,7081772.9331],[284415.4015,7084022.0282],[282746.0665,7085511.4242],[281696.4907,7084751.7255],[281256.6721,7083402.2659],[280666.9202,7080243.5322],[281426.6238,7077844.4983],[282186.3208,7077244.7419]]],[[[240633.1294,7043088.3039],[242282.4667,7043248.2459],[243791.8569,7044307.8261],[243781.8541,7046117.0998],[243172.0956,7047006.7404],[241962.5778,7047906.3747],[241062.939,7047896.3754],[240013.362,7047446.5521],[238963.7889,7045937.1541],[239113.7321,7045037.5158],[239723.4923,7043688.0598],[240633.1294,7043088.3039]]],[[[208446.0766,7035561.2044],[210105.4096,7035871.0863],[211454.8629,7037230.5458],[212944.2544,7040089.404],[212634.3709,7042188.5604],[211274.9159,7042328.4991],[207686.373,7037810.2989],[207386.4963,7037050.6027],[207546.4355,7036150.9643],[208446.0766,7035561.2044]]],[[[217792.334,7033362.1222],[218841.9094,7034261.7651],[220031.4229,7036670.8027],[219571.6007,7038470.0788],[218971.838,7039369.7155],[216862.6851,7039209.7718],[214003.8376,7037840.3106],[212944.2674,7036630.7921],[214633.6013,7033492.0581],[217792.334,7033362.1222]]],[[[247900.253,7032172.7133],[248799.8884,7033082.3515],[250609.1575,7034291.8727],[253917.8268,7034911.6363],[254667.523,7035661.3381],[254957.4015,7037020.7934],[254047.7628,7038060.3726],[252998.182,7038660.1279],[249689.5132,7037890.4245],[247740.3037,7035771.268],[246390.8539,7033512.1698],[246240.9164,7032912.4101],[246550.7942,7032312.652],[247900.253,7032172.7133]]],[[[231976.6712,7025335.3978],[233026.2493,7025485.3416],[233626.0005,7027594.4972],[234525.6349,7028794.0191],[236035.034,7027454.5625],[236784.7354,7026854.8061],[237544.4304,7026864.805],[238284.126,7028814.0253],[237224.5451,7030463.3592],[235105.3891,7032252.6329],[233755.9302,7032392.5717],[233156.1721,7032092.6898],[231506.8444,7029383.7709],[231216.9733,7026075.098],[231976.6712,7025335.3978]]],[[[257716.339,7025025.6198],[258775.913,7025175.5636],[260125.3661,7026535.0229],[260865.0617,7028494.239],[260855.0549,7031343.0951],[260095.3588,7031642.9719],[257846.2664,7030423.4531],[256336.8708,7030873.2668],[254377.6535,7031912.842],[252418.4401,7031902.8386],[249419.6498,7030383.4373],[248220.1359,7029173.9184],[248829.8973,7027524.5829],[250339.2942,7026784.8856],[252598.3883,7026495.0105],[253957.8453,7025755.3126],[254947.4491,7025455.4368],[255657.1649,7025255.5197],[257716.339,7025025.6198]]],[[[213654.0614,7015919.1072],[214993.5134,7018628.0251],[216043.0887,7019537.6641],[218152.2444,7018947.9089],[220111.4586,7018807.9725],[220561.2769,7019117.8499],[221011.0912,7020467.31],[221001.0843,7023316.1665],[219931.5027,7026165.019],[219021.8638,7027214.5943],[217512.4668,7027954.2916],[216612.8291,7027644.4126],[214963.5002,7025235.3732],[213913.922,7025085.4294],[211354.9479,7025365.3073],[210445.3096,7026264.9428],[210295.3669,7027014.6413],[211344.9411,7028224.1599],[212234.5795,7029423.6819],[212384.5119,7031382.8961],[211015.0547,7033172.1729],[209965.4748,7033462.0525],[208915.9,7032412.4698],[206966.6897,7030443.2527],[204847.5328,7032392.4624],[204097.8336,7032382.4636],[203348.139,7031182.9421],[203208.1992,7030123.3668],[204437.7292,7023975.8385],[206107.0753,7019787.5257],[207166.653,7019037.8307],[207916.3521,7019047.8295],[209125.8684,7018598.0147],[211085.0896,7016658.8005],[213654.0614,7015919.1072]]],[[[186944.8568,6996106.954],[188744.1348,6996116.957],[189503.8281,6996576.7755],[190543.4039,6998376.0576],[190233.5212,7000185.3304],[189333.8787,7001074.9699],[188124.3628,7001374.8448],[186924.8477,7000465.2051],[186025.2169,6998356.0479],[186185.1563,6997456.4095],[186944.8568,6996106.954]]],[[[206227.1293,6993508.0728],[206966.8247,6995467.2894],[206946.8186,6999075.8411],[206496.9956,6999965.4823],[205437.4173,7000865.1171],[204077.9624,7001005.0556],[203328.2656,7000405.2934],[202738.5076,6999045.8366],[202598.5749,6996196.9794],[202748.5165,6995747.1605],[203358.2759,6994697.5841],[204567.7946,6993658.0061],[206227.1293,6993508.0728]]],[[[200869.339,6978474.085],[202818.5532,6979383.7277],[204617.8239,6981193.0088],[205067.6404,6981942.7097],[205207.5782,6983452.1045],[204157.9959,6984341.7433],[202498.663,6984031.8611],[200249.5704,6982822.3375],[198900.1192,6981013.0582],[198750.1817,6980413.2983],[199359.9424,6979063.8423],[200869.339,6978474.085]]],[[[196101.2997,6966738.7754],[198060.5134,6966748.7793],[198660.269,6967648.4207],[198800.2074,6968997.8797],[198040.5063,6970497.2749],[196681.0458,6971996.6677],[195781.4069,6971986.6681],[195331.5928,6970637.2078],[195191.6575,6968528.0537],[195341.5997,6967928.295],[196101.2997,6966738.7754]]],[[[194831.8893,6947066.6648],[196791.103,6947076.6689],[197380.8577,6949175.8289],[196771.0932,6951424.9237],[195861.4546,6952324.559],[194961.8144,6952614.439],[194062.1797,6951564.8565],[193772.3066,6949005.8822],[194072.1905,6947956.3047],[194831.8893,6947066.6648]]],[[[203075.98776532,6883478.80820084],[208432.048,6887784.308],[220077.099,6887919.971],[220952.133,6902377.43],[228152.922,6909981.352],[223586.714,6914542.365],[225167.371,6925052.695],[218593.415,6925888.223],[218977.094,6933299.884],[222504.412,6944931.612],[222606.645,6953265.494],[226534.377,6956810.068],[233606.195,6962292.145],[231118.654,6970711.502],[234172.221,6981191.422],[238086.329,6975083.104],[255005.203,6967040.636],[259059.772,6971163.906],[258524.271,6981138.982],[253892.615,6990776.106],[259700.002,7001591.214],[279630.013,7004441.65],[280966.276,7010093.664],[278943.866,7012914.357],[278742.932,7016933.049],[277939.193,7021755.48],[280240.272,7024528.828],[286772.013,7032681.629],[297027.98,7028587.256],[298653.251,7033398.214],[305165.832,7031400.34],[310586.421,7035650.362],[313922.262,7043392.788],[320481.677,7046141.494],[327811.153,7042330.427],[334929.075,7032219.92],[333567.123,7043747.806],[330575.888,7053656.422],[325898.683,7055701.029],[322684.58,7059188.11],[325264.099,7064134.802],[330836.143,7062505.089],[338953.924,7064950.882],[326421.797,7077190.967],[324522.137,7072617.613],[319350.795,7075595.701],[314727.342,7070911.836],[303549.675,7079942.708],[299015.297,7078375.488],[297574.143,7082650.797],[294268.10049847,7091520.26452226],[293561.7027,7091269.1502],[293351.7879,7091029.2458],[291762.4328,7089159.9909],[290273.0405,7086451.0736],[288163.8913,7085391.4916],[286974.3738,7084032.0333],[287124.3189,7082532.636],[288483.7862,7078834.1262],[288063.9663,7075635.4093],[287764.0905,7074575.8337],[287464.212,7074275.9531],[287014.3926,7074275.9514],[285640.40045434,7073216.66950029],[284874.9002,7072626.5056],[283715.7271,7071557.0315],[283265.9127,7070197.5758],[283169.9553,7069067.0294],[283125.9748,7068548.2376],[282676.1571,7068098.4166],[279967.2471,7067478.6557],[278018.037,7065519.4354],[277268.3413,7064609.7979],[277268.3429,7064189.9665],[277268.3446,7063710.1592],[276704.46932342,7062923.57084161],[276078.8283,7062050.8212],[274719.3759,7061591.0009],[273669.8006,7060691.3583],[273080.0429,7059181.9623],[273090.0527,7055433.4675],[272190.4172,7054523.8295],[270840.9586,7054663.7683],[269921.318,7057362.6812],[269171.6168,7057962.4377],[268421.9189,7057662.5553],[267222.4055,7056303.0968],[266322.7745,7054193.9404],[266032.9009,7051485.027],[266042.9029,7049835.6893],[265143.2692,7048486.2278],[262584.2972,7048316.2866],[261384.7833,7047106.7678],[261544.7219,7046357.0694],[262454.3644,7044267.9116],[264573.5242,7041419.0634],[266252.8655,7037230.7514],[267612.332,7033932.081],[268083.20402163,7032508.78128402],[268491.9888,7031273.152],[268082.158,7030033.6481],[266732.705,7028674.1889],[263424.0341,7028504.2447],[262974.217,7027904.4838],[261224.936,7023516.2392],[260745.1314,7022786.5304],[259985.4382,7022336.7081],[258635.9812,7022026.8274],[255417.2729,7022186.7509],[254987.4449,7022336.6891],[247128.467,7024805.811],[243711.9572,7026145.1173],[242062.6211,7025685.2956],[239653.5888,7025525.3507],[237094.6201,7024455.7703],[233346.1334,7022186.6669],[230177.4037,7022616.4823],[229117.8211,7024715.6357],[229007.8589,7026384.9652],[228348.1181,7027864.3689],[227748.3588,7027864.3666],[226698.7841,7026804.7879],[225809.1503,7024395.7515],[225829.1578,7020347.3765],[224183.89140518,7016434.90680972],[223740.0154,7015379.3626],[222540.5044,7013420.1444],[222400.5651,7012220.6253],[223010.325,7011021.1092],[226029.1237,7008332.2001],[226938.7638,7006992.7413],[227098.7078,7004883.5885],[226498.9526,7003834.0075],[224999.555,7003674.0659],[223040.3386,7004413.7614],[221231.0654,7004253.8185],[219571.7314,7004243.8161],[218812.0323,7005293.3919],[217912.3887,7006492.907],[216702.8725,7006932.7257],[215803.2365,7006173.0272],[215353.4211,7005123.4467],[215363.4229,7003624.0485],[216872.8224,7002274.596],[217322.6418,7002284.5937],[217622.5226,7001984.7153],[218682.1032,7000485.3212],[218861.96168007,6999202.36678591],[218981.9911,6998346.181],[219601.7458,6997486.5285],[220061.5653,6996436.9515],[220071.5713,6993887.9747],[219471.8144,6993288.2131],[217672.5407,6992228.6313],[215873.2736,6989509.7155],[216493.0385,6986061.1021],[216193.1606,6985611.2815],[215293.5253,6984701.643],[213634.1931,6984241.821],[211834.9141,6984531.6975],[211067.8134775,6985212.99856749],[210315.5186,6985881.1499],[209715.7581,6986181.0272],[208516.2419,6985571.2671],[207766.5464,6984661.6292],[206876.9142,6981952.7129],[205987.288,6977744.3983],[204487.897,6975935.1184],[202228.8025,6976224.9931],[201029.2827,6976524.8679],[200129.6455,6976065.0489],[199829.7677,6975615.2282],[199979.7111,6974715.5898],[201798.9918,6972016.6802],[201659.0601,6969017.8832],[199260.0332,6966448.9045],[198210.458,6965549.2613],[197877.18260979,6964598.96371926],[197470.7634,6963440.1047],[197150.896,6962400.5206],[196141.322,6957272.5744],[196451.2007,6956532.8725],[197200.9023,6955933.1163],[198110.5372,6955933.12],[199609.9299,6957292.5805],[200959.3883,6957302.582],[202168.9078,6956113.0643],[202028.9695,6954753.6094],[201279.2771,6953104.2682],[198140.5572,6948126.2532],[198160.5664,6943927.9382],[197860.6936,6942278.5989],[198620.3943,6940929.1436],[199530.0336,6939879.5686],[199390.0984,6937780.4104],[198420.5018,6934361.7784],[198000.6844,6930953.1447],[198508.23513271,6929873.60413271],[198630.4373,6929613.6849],[200279.7801,6928474.1491],[202848.7523,6927714.4648],[203723.915,6927644.7269],[204440.8727658,6927681.70641309],[205657.6248,6927744.4645],[207167.0195,6927614.523],[207726.7991,6926604.9305],[207007.096,6924675.7018],[207017.093,6924445.7942],[206028.65782799,6922603.42611114],[205327.7842,6921297.0509],[205327.7855,6920997.1712],[204528.1108,6919957.5851],[203848.397,6916788.8541],[204148.2805,6915889.2164],[205057.9179,6915289.461],[208826.4091,6914409.83],[209885.9901,6912920.4323],[209736.0573,6911261.0977],[209146.2997,6909911.6369],[207197.0905,6907942.419],[206297.4548,6907192.7161],[205697.7026,6905533.3795],[205407.8305,6902834.4616],[203328.6882,6897416.6273],[202439.0647,6892908.4329],[200659.7964,6888850.0541],[200659.801,6887790.4794],[200959.6845,6886890.8418],[202479.0812,6885401.4462],[203075.98776532,6883478.80820084]]]]},"geometry_name":"geom","properties":{"id":14,"maakunta":"15","vuosi":2026,"nimi":"Pohjanmaa","namn":"Österbotten","name":"Ostrobothnia"},"bbox":[186025.2169,6883478.80820084,338953.924,7091520.26452226]},{"type":"Feature","id":"maakunta4500k.15","geometry":{"type":"Polygon","coordinates":[[[366787.924,7001300.583],[375623.274,7005527.284],[387722.5,7002395.289],[387296.023,7017190.734],[389814.314,7018219.869],[388595.831,7027489.373],[395339.008,7035351.22],[402107.619,7038128.976],[391823.151,7052793.048],[382095.705,7060308.614],[373383.552,7081747.121],[364807.017,7086218.885],[359428.975,7098263.923],[357922.837,7108191.109],[352365.044,7111142.042],[347489.105,7102131.132],[340750.179,7098151.94],[333145.54679009,7108319.32489223],[332635.9512,7107402.806],[331126.5571,7107542.7446],[329317.2803,7108582.3207],[326898.2444,7110821.4129],[325988.6083,7111271.229],[324939.03,7111261.2294],[322689.9387,7109751.828],[322090.1879,7107342.7937],[322430.0795,7099236.0515],[323039.8429,7096837.0173],[323199.7855,7094887.8009],[322829.9365,7094198.0767],[322000.2732,7093228.4633],[318691.6018,7093368.3955],[317342.1439,7093358.3948],[316582.4502,7093048.5166],[315232.9928,7092898.5721],[314953.105,7092958.547],[314633.2332,7093038.5137],[310564.8674,7093018.5075],[307556.0787,7092248.8061],[305906.7417,7092088.8645],[305007.1062,7091189.2227],[304257.4137,7089379.9467],[302758.0202,7088170.4272],[301858.381,7088320.3638],[299729.2251,7091459.0957],[298679.6445,7092048.8551],[296570.4906,7092338.7313],[294268.10049847,7091520.26452226],[297574.143,7082650.797],[299015.297,7078375.488],[303549.675,7079942.708],[314727.342,7070911.836],[319350.795,7075595.701],[324522.137,7072617.613],[326421.797,7077190.967],[338953.924,7064950.882],[330836.143,7062505.089],[325264.099,7064134.802],[322684.58,7059188.11],[325898.683,7055701.029],[330575.888,7053656.422],[333567.123,7043747.806],[334929.075,7032219.92],[342611.354,7020368.441],[352036.619,7017751.916],[360769.996,7007607.465],[357452.604,7005219.8],[366787.924,7001300.583]]]},"geometry_name":"geom","properties":{"id":15,"maakunta":"16","vuosi":2026,"nimi":"Keski-Pohjanmaa","namn":"Mellersta Österbotten","name":"Central Ostrobothnia"},"bbox":[294268.10049847,7001300.583,402107.619,7111271.229]},{"type":"Feature","id":"maakunta4500k.16","geometry":{"type":"MultiPolygon","coordinates":[[[[417351.5418,7219857.886],[418101.2381,7220617.5829],[417341.5381,7222416.8572],[415372.3262,7223606.3731],[414022.8687,7223596.3731],[413273.1737,7222386.8571],[413273.1746,7222086.9776],[413423.1166,7221337.2794],[415092.4496,7219997.823],[417351.5418,7219857.886]]],[[[395280.4596,7204873.8421],[397389.6118,7204883.8446],[397989.3698,7205193.7218],[399188.8839,7206403.2394],[399638.6999,7207452.8189],[399178.8774,7209851.8531],[397659.478,7213150.5226],[397649.4766,7214949.7993],[399148.8697,7216309.2574],[400658.2635,7216169.3183],[402617.48,7214829.8626],[403976.9367,7213780.2887],[405036.5117,7213490.4084],[406985.7277,7213650.3501],[408495.1186,7214410.0493],[409684.6363,7215769.5064],[409684.6309,7217568.7831],[407875.3555,7218458.42],[405466.3257,7217838.6618],[402757.4142,7217978.5974],[401547.8963,7219318.0553],[399278.8021,7221417.2046],[396869.7704,7221397.2054],[393111.2848,7220177.6842],[389802.6169,7219407.9836],[387403.5848,7218198.4624],[386204.071,7216839.0052],[385604.3162,7215479.5497],[385764.2556,7214280.0323],[386673.8987,7211431.1801],[387593.5415,7207382.81],[388653.1188,7206343.2311],[390912.2108,7206353.234],[392111.7264,7207112.9324],[393321.2407,7206962.9963],[393921.0005,7206673.1147],[395280.4596,7204873.8421]]],[[[333625.5068,7121067.3197],[335584.7196,7121077.3224],[336143.4937,7121506.152],[336314.4246,7121637.0999],[337045.1281,7122505.7534],[337663.8747,7123916.1889],[337663.8704,7125165.6869],[336424.3642,7126405.1847],[334345.2023,7125575.511],[334215.2563,7125045.7234],[334005.3428,7124425.9717],[333545.5307,7123486.3476],[333315.6246,7123016.5356],[333175.6844,7121966.9568],[333625.5068,7121067.3197]]],[[[449823.929,7033795.763],[458467.072,7036592.579],[458422.283,7039438.245],[460032.116,7049273.187],[464854.405,7051516.751],[462785.501,7079521.042],[478421.209,7093042.385],[493669.471,7101140.706],[489315.436,7103395.369],[488879.423,7121106.639],[488735.814,7126583.419],[491175.06,7130321.575],[497180.609,7133462.036],[501966.818,7129564.258],[509082.061,7131608.553],[512112.812,7141506.091],[508904.711,7147829.831],[519019.269,7160802.864],[514733.515,7165699.284],[511426.447,7175081.082],[512075.393,7179011.354],[507026.469,7190106.11],[516827.553,7187548.477],[519089.725,7192382.917],[518218.533,7203942.415],[512366.127,7211527.24],[515503.419,7218599.02],[525568.03,7218524.964],[531310.618,7222140.256],[542025.612,7218946.15],[546561.028,7233474.266],[554298.02,7236856.128],[575034.507,7241361.841],[576524.028,7252846.658],[590659.529,7259723.006],[598101.335,7259984.537],[602324.006,7268038.776],[610843.098,7266669.204],[617868.763,7267228.37],[627450.617,7266675.49],[632179.8,7273925.6],[626870,7279145.9],[625258.2,7282170.4],[638519.4,7289404.2],[644242.1,7286581.5],[643867.7,7290028.3],[639794.5,7311620.6],[637395.4,7319511.3],[636100.1,7320803.2],[635664.7,7325640.5],[631979.4,7337161.9],[621347.838,7352612.307],[614767.566,7370520.926],[600723.816,7369982.334],[600847.92,7367226.299],[575470.26,7375090.259],[568892.525,7357831.516],[571535.284,7350680.086],[578610.673,7349374.686],[577450.11,7336119.469],[572435.541,7335122.877],[573532.923,7328766.401],[579928.398,7325866.071],[579288.478,7321216.143],[575008.83,7319436.645],[570051.364,7321770.669],[563104.105,7320196.602],[562371.144,7316158.058],[568767.928,7308451.269],[569086.753,7303600.565],[555960.827,7298229.095],[534776.431,7300873.374],[529768.18,7315646.993],[523951.184,7311273.286],[518535.957,7313104.574],[503301.393,7289791.985],[491950.939,7286610.701],[461385.917,7289578.81],[461616.22,7300363.885],[451429.652,7295129.029],[444538.768,7291543.363],[427779.649,7292121.84],[413803.717,7277425.091],[412373.19847675,7276001.50971755],[412435.3438,7275846.1464],[411993.5386,7273576.2753],[412753.2358,7272676.6391],[414112.6893,7272686.6389],[415612.0823,7274196.0364],[416811.6,7274206.0357],[417261.4205,7273756.2178],[418630.8784,7270757.4273],[420630.0859,7266829.0122],[421119.8915,7265959.3633],[422579.312,7263420.3882],[423039.131,7262080.928],[422899.1967,7258772.2578],[422159.4993,7256962.983],[419450.5945,7254853.8231],[419470.596,7251545.1534],[419480.5985,7249296.0576],[417831.2691,7246737.0815],[419500.6072,7243588.3523],[419820.4896,7239839.8602],[419790.5034,7239260.0932],[419694.29225905,7237632.11939149],[419540.6163,7235031.7923],[419850.4949,7233982.2152],[419700.561,7232032.9984],[418361.1053,7230073.7821],[417161.5916,7228714.325],[416861.7166,7227214.9269],[417621.4166,7225415.6525],[418830.933,7224526.0138],[420940.0877,7223636.3778],[422459.4823,7221837.1057],[423609.0274,7219428.0777],[423748.9734,7218688.3755],[423978.8845,7217498.8545],[425058.4678,7211801.1485],[425368.3451,7211201.3906],[428996.8971,7207612.8445],[428846.962,7206113.4469],[428097.2648,7205653.6295],[427197.6266,7205653.6267],[424214.2592,7205825.305],[421093.1848,7208314.9864],[419114.2498,7209551.8209],[417753.7319,7210541.2884],[416631.8589,7210701.5649],[415582.2827,7210091.8068],[414992.5262,7207992.6489],[415902.1706,7204723.9658],[418441.1589,7201795.1511],[422809.4124,7198646.4305],[423296.49952198,7196830.31389591],[423509.1392,7196037.4815],[423789.0341,7193628.451],[422739.4604,7192268.9943],[421839.8235,7191809.1763],[420030.5509,7191799.1747],[419650.7013,7192548.8721],[419565.18531597,7192718.64517702],[418970.9704,7193898.3275],[418811.0314,7194947.905],[417601.5121,7196747.1779],[414272.8433,7198976.2714],[410504.3528,7200755.5445],[405546.3478,7200125.7823],[405246.4693,7199825.9019],[405098.39258472,7199677.82434528],[404946.5907,7199526.0216],[403287.2615,7198316.5026],[401038.1684,7197406.8613],[394410.8324,7197366.8568],[392011.8009,7195997.3998],[390822.2884,7192988.6054],[389172.9546,7191929.0261],[387063.8023,7191919.0236],[385704.3488,7191909.0233],[384504.8341,7190859.4414],[384055.0178,7189949.8056],[384041.81954927,7187476.23746035],[384035.8847,7186363.9496],[383935.0891,7182592.7621],[381995.8766,7180033.7844],[381755.9735,7179893.8399],[380946.3004,7179424.0261],[378687.2107,7178664.3243],[377337.7559,7177754.6856],[376288.1845,7175645.5299],[375848.3679,7173546.3721],[374219.0444,7166779.0865],[372589.7152,7161821.0738],[370369.35307685,7160108.90292025],[368921.1987,7158992.1987],[368691.2922,7158642.3386],[368251.4758,7156543.1807],[362843.6618,7152604.7457],[356106.3929,7145357.6356],[354536.463,7142479.686],[351768.1575,7138880.224],[350568.6491,7136021.3687],[350878.5296,7134521.9722],[350888.5341,7131972.9964],[349838.9594,7130913.4186],[348479.5036,7131513.1731],[347879.7406,7132702.6931],[346970.104,7133302.4491],[345620.6473,7132992.5691],[344421.1333,7131783.051],[343231.6244,7127874.6173],[340982.5346,7125915.3969],[339676.0672,7123631.3102],[338468.5594,7121568.135],[337446.9752,7119970.7733],[336044.5461,7117778.6492],[335444.7881,7117478.7676],[333945.3962,7115819.4291],[333955.3994,7113710.2765],[333975.4048,7109811.8428],[333145.54679009,7108319.32489223],[340750.179,7098151.94],[347489.105,7102131.132],[352365.044,7111142.042],[357922.837,7108191.109],[359428.975,7098263.923],[364807.017,7086218.885],[373383.552,7081747.121],[382095.705,7060308.614],[391823.151,7052793.048],[402107.619,7038128.976],[404408.486,7039073.207],[407657.217,7050922.609],[412982.72,7054781.153],[417999.767,7051437.468],[424539.134,7045824.724],[439004.42,7042516.974],[444765.3,7035052.776],[449823.929,7033795.763]]]]},"geometry_name":"geom","properties":{"id":16,"maakunta":"17","vuosi":2026,"nimi":"Pohjois-Pohjanmaa","namn":"Norra Österbotten","name":"North Ostrobothnia"},"bbox":[333145.54679009,7033795.763,644242.1,7375090.259]},{"type":"Feature","id":"maakunta4500k.17","geometry":{"type":"Polygon","coordinates":[[[563043.244,7060737.936],[567078.911,7070399.907],[573709.114,7084778.258],[592736.498,7080090.685],[603849.594,7081611.248],[606127.874,7081796.115],[631746.055,7086294.3],[634339.733,7071800.544],[637169.834,7066938.585],[641828.736,7072259.878],[646581.916,7073365.668],[660434.6,7081278.5],[662902.1,7091174.7],[668642.7,7099655.3],[672194.5,7107229.7],[672914,7116577.8],[668243.8,7124378.9],[670234.4,7126414.7],[668670.1,7130865.7],[664072.7,7131369.8],[662671.4,7132662.9],[662859.4,7134723.3],[654995.1,7139984],[650079.5,7141364.7],[646744.2,7145332.2],[647130.9,7150803.3],[645327.2,7154299.7],[645488.5,7156275.4],[643263.6,7159882.5],[643098.6,7165870.1],[646056.4,7169096.2],[649088.2,7170432.3],[649570.9,7171439.8],[649765.8,7173042.2],[645499.6,7179979.7],[644765,7183087.6],[646998.6,7185847.5],[646732.9,7186842.9],[644561.2,7188846.2],[630174.5,7187843.2],[627561.6,7190969.5],[628052.9,7193044.9],[625318.7,7196194.9],[623678,7201812.4],[623670.6,7206520.3],[622571.5,7210423.9],[623570.8,7217777.3],[628392.1,7221406.9],[633003.7,7221680.2],[636031.6,7223292.5],[633851.6,7225660.1],[632198.3,7227486.3],[635429.5,7233066.2],[634990.7,7234533],[629196.9,7236794.9],[623106.2,7236834.7],[621471,7239929.5],[621747.6,7241710.3],[627803.1,7249957.5],[626655.5,7255813.4],[626569,7263862.5],[627450.617,7266675.49],[617868.763,7267228.37],[610843.098,7266669.204],[602324.006,7268038.776],[598101.335,7259984.537],[590659.529,7259723.006],[576524.028,7252846.658],[575034.507,7241361.841],[554298.02,7236856.128],[546561.028,7233474.266],[542025.612,7218946.15],[531310.618,7222140.256],[525568.03,7218524.964],[515503.419,7218599.02],[512366.127,7211527.24],[518218.533,7203942.415],[519089.725,7192382.917],[516827.553,7187548.477],[507026.469,7190106.11],[512075.393,7179011.354],[511426.447,7175081.082],[514733.515,7165699.284],[519019.269,7160802.864],[508904.711,7147829.831],[512112.812,7141506.091],[509082.061,7131608.553],[501966.818,7129564.258],[497180.609,7133462.036],[491175.06,7130321.575],[488735.814,7126583.419],[488879.423,7121106.639],[489315.436,7103395.369],[493669.471,7101140.706],[505835.73,7095992.143],[522029.293,7090894.056],[526482.682,7092271.614],[545558.664,7080024.947],[557748.878,7065762.393],[563043.244,7060737.936]]]},"geometry_name":"geom","properties":{"id":17,"maakunta":"18","vuosi":2026,"nimi":"Kainuu","namn":"Kajanaland","name":"Kainuu"},"bbox":[488735.814,7060737.936,672914,7268038.776]},{"type":"Feature","id":"maakunta4500k.18","geometry":{"type":"Polygon","coordinates":[[[412373.19847675,7276001.50971755],[413803.717,7277425.091],[427779.649,7292121.84],[444538.768,7291543.363],[451429.652,7295129.029],[461616.22,7300363.885],[461385.917,7289578.81],[491950.939,7286610.701],[503301.393,7289791.985],[518535.957,7313104.574],[523951.184,7311273.286],[529768.18,7315646.993],[534776.431,7300873.374],[555960.827,7298229.095],[569086.753,7303600.565],[568767.928,7308451.269],[562371.144,7316158.058],[563104.105,7320196.602],[570051.364,7321770.669],[575008.83,7319436.645],[579288.478,7321216.143],[579928.398,7325866.071],[573532.923,7328766.401],[572435.541,7335122.877],[577450.11,7336119.469],[578610.673,7349374.686],[571535.284,7350680.086],[568892.525,7357831.516],[575470.26,7375090.259],[600847.92,7367226.299],[600723.816,7369982.334],[614767.566,7370520.926],[612103.6,7377488.2],[609809.277,7382629.323],[606883.5,7386978.2],[605693.5,7389646.3],[604456,7393092.6],[594548.9,7408533.9],[593130.4,7410832.7],[590371.8,7416498.7],[588909.5,7424527.9],[589118.1,7428551.8],[590382.9,7432428.3],[608434.6,7464864],[608563.3,7468132.6],[610368.3,7469609.2],[612314.5,7470133.6],[613667,7471233.7],[612626.4,7472950.5],[614092.8,7475114.9],[616486.1,7477694.3],[621356.5,7487578.7],[624978.8,7492585.4],[627859.7,7509584],[612091.9,7523305.4],[612091.883,7523305.434],[596951.2,7553001.9],[568226.8,7565660.7],[560577.601,7595569.21],[558541.9,7603716.6],[569068.4,7625464.4],[572439.8,7640848.7],[566777.3,7642600.7],[559012.8,7642293],[556836.5,7645589.8],[560007.8,7647301.7],[576967.709,7661361.295],[573904.425,7664025.11],[571833.152,7667814.046],[572620.742,7674614.358],[572494.649,7680463.163],[587138.873,7700281.345],[591393.468,7709444.233],[584267.973,7727117.443],[582627.154,7733342.157],[554063.014,7746246.426],[551149.248,7749613.176],[551640.057,7753153.21],[544471.232,7757485.69],[537544.848,7767734.188],[536457.842,7776430.911],[530705.35,7774667.853],[528303.47,7773200.962],[525907.731,7774629.464],[523294.318,7774304.985],[521098.128,7772546.808],[520054.792,7768576.276],[515835.737,7767762.214],[513427.839,7764860.154],[511686.471,7764665.11],[510577.09,7763486.468],[511501.629,7760853.397],[505266.607,7758364.457],[501602.881,7755928.816],[498842.76,7759012.393],[495355.348,7758443.793],[494212.62,7761441.435],[492116.584,7761290.511],[489218.65,7759793.621],[487714.378,7761976.983],[482916.36,7760148.362],[479773.644,7759323.034],[479119.434,7756899.973],[477278.579,7754997.045],[477510.764,7752495.725],[476362.709,7749807.75],[470791.894,7745133.882],[470353.771,7742864.873],[465485.428,7736051.838],[461335.606,7734929.816],[457024.783,7728887.958],[459567.87,7726211.491],[460207.607,7722742.532],[458267.304,7718490.632],[454936.407,7716137.825],[456107.064,7712997.635],[455066.061,7710225.93],[454940.039,7707386.095],[453057.921,7701585.963],[454701.24,7698704.32],[451105.042,7691746.752],[450233.902,7689506.378],[449938.427,7684472.004],[448691.081,7683190.564],[448257.589,7676661.272],[449883.728,7671333.783],[449236.56,7665322.44],[450016.526,7659696.457],[451140.225,7656845.975],[448484.793,7652249.685],[445923.194,7644587.737],[443238.646,7641997.585],[440936.145,7642584.467],[438741.771,7644476.146],[431135.053,7639315.453],[429382.182,7637826.071],[428651.379,7635924.975],[424990.918,7631771.465],[423421.761,7622016.643],[423444.667,7615347.553],[420948.509,7613593.006],[417822.491,7613044.422],[415210.71,7611781.7],[414458.47,7606155.54],[412612.09,7607069.13],[409903.159,7615424.808],[402989.349,7620779.9],[388724.329,7626424.829],[384896.35,7629552.91],[385308.294,7633566.049],[381910.19,7632637.89],[378445.301,7638072.857],[373994.08,7639342.62],[370024.363,7637575.002],[367835.23,7630085.33],[365237.82,7625173.24],[355725.67,7624214.321],[344227.47,7617794.981],[339725.231,7624877.973],[329788.186,7625337.079],[319505.541,7632432.574],[312778.75,7629816.301],[312349.459,7642216.793],[307161.09,7652860.431],[306845.179,7657087.14],[288050.239,7694506.83],[274712.645,7699672.756],[266892.342,7694551.354],[263101.055,7690672.101],[261943.932,7687604.548],[263895.03,7679431.84],[265802.13,7677211.78],[263044.62,7669896.14],[250470.957,7680517.905],[243238.707,7674571.778],[245431.475,7672761.217],[250127.838,7671438.297],[253038.261,7667667.977],[255154.931,7664625.263],[256477.851,7661516.402],[253463.1,7659585.376],[254890.348,7654504.93],[259191.939,7654560.938],[267952.679,7644106.434],[269817.936,7638554.282],[273415.947,7638509.831],[274043.107,7636955.654],[274028.284,7630713.035],[281880.734,7626095.449],[284877.908,7621942.958],[284947.68,7618163.489],[291987.413,7616607.394],[295385.951,7611143.028],[297215.9,7604571.493],[301807.194,7603276.112],[305394.172,7603939.953],[309683.817,7603824.534],[309161.671,7599685.372],[312188.015,7601822.436],[314568.692,7598973.819],[318096.576,7597170.474],[321331.148,7597185.859],[321336.815,7595718.905],[324348.899,7592678.015],[326436.408,7592231.382],[328978.769,7591594.639],[328845.409,7589358.465],[332585.316,7585595.171],[337502.342,7581689.548],[338091.344,7577645.075],[340606.008,7575308.789],[339818.763,7565530.192],[340855.704,7562708.413],[345878.353,7564702.22],[349380.045,7552609.985],[354223.825,7548130.034],[356568.154,7543868.997],[358518.282,7543208.894],[360265.869,7540081.489],[356496.632,7534936.932],[354132.858,7534373.813],[351777.77,7529232.927],[351150.549,7518312.321],[351296.434,7509598.379],[353571.398,7504861.532],[352952.605,7500406.995],[349357.762,7498502.359],[349959.547,7495418.186],[345964.379,7489912.203],[347047.546,7487293.463],[350038.235,7485380.446],[352081.969,7486903.763],[358473.135,7484659.758],[361465.139,7482730.596],[359183.866,7478159.568],[361014.044,7472128.487],[358698.661,7466585.791],[352383.366,7465367.7],[350865.929,7460629.805],[352900.054,7458577.589],[350832.154,7454621.221],[354891.821,7446597.636],[355421.914,7442440.643],[357960.031,7437076.266],[359824.759,7434659.799],[362882.653,7429439.257],[362899.173,7425860.724],[365785.506,7421662.65],[368070.115,7414629.216],[366368.12,7410669.982],[364261.303,7411670.215],[362666.703,7408425.018],[363252.395,7403022.366],[362607.428,7399474.892],[361459.65,7396288.342],[361603.966,7388352.725],[360366.592,7385436.223],[357443.872,7383562.832],[357653.477,7381647.716],[354032.454,7378955.47],[353284.31,7376569.62],[350374.447,7374854.154],[350284.924,7371086.056],[351318.722,7368270.604],[351457.458,7365324.735],[349854.14,7358535.324],[352668.448,7345538.722],[356832.984,7342804.767],[359905.369,7342076.242],[361426.414,7340236.19],[361049.457,7337998.61],[361838.797,7334667.393],[361843.068,7331055.716],[363926.922,7327077.452],[366149.581,7322514.184],[365508.87,7319175.596],[367177.885,7316119.731],[368805.175,7315016.751],[368746.399,7311366.108],[370376.3,7306428.406],[369760.78,7302000.867],[368409.039,7299412.481],[368621.00215477,7298224.46860883],[369009.3599,7298305.1581],[371849.6057,7297676.4771],[374088.6948,7301744.8484],[375138.2714,7302344.6102],[375897.9674,7301904.7891],[378616.8837,7298616.1181],[382603.667,7296353.473],[384359.2022,7295140.7636],[385843.4035,7294646.0298],[386709.1876,7293409.1953],[386956.5545,7291059.2099],[385594.1112,7287240.7089],[386053.9302,7285891.2525],[387113.5068,7285001.613],[388163.085,7285001.616],[390842.0024,7287140.7637],[392081.5139,7283672.1612],[392361.402,7283452.2504],[392601.85689486,7283066.84203855],[393017.0432,7282401.3689],[395550.1231,7282492.645],[397799.214,7284301.9241],[400208.2461,7284171.983],[402467.3385,7284032.0456],[403976.7347,7282992.4677],[405945.9499,7280593.4375],[409404.5604,7280313.5597],[411445.8763,7278319.8153],[412373.19847675,7276001.50971755]]]},"geometry_name":"geom","properties":{"id":18,"maakunta":"19","vuosi":2026,"nimi":"Lappi","namn":"Lappland","name":"Lapland"},"bbox":[243238.707,7276001.50971755,627859.7,7776430.911]},{"type":"Feature","id":"maakunta4500k.19","geometry":{"type":"MultiPolygon","coordinates":[[[[176037.1604,6715875.563],[177436.58,6719614.0693],[177636.4971,6720133.8617],[177816.4118,6722762.8073],[175797.2064,6725971.5093],[174287.801,6728220.599],[173228.2264,6728210.5978],[172638.4676,6727310.9559],[172488.5367,6725511.6774],[172358.6135,6720553.6668],[172978.3797,6717554.8736],[173738.0801,6716505.2987],[176037.1604,6715875.563]]],[[[167244.033,6712570.6507],[169503.1217,6713480.2969],[170092.8737,6715729.3971],[170082.8634,6718588.2496],[169013.2785,6721437.1008],[167953.7001,6722176.7986],[166154.426,6721417.0946],[165104.8548,6719907.6951],[164964.9222,6717658.5971],[165124.8625,6716758.959],[166184.4531,6713610.2281],[167244.033,6712570.6507]]],[[[134157.3421,6706382.9668],[137615.9543,6706392.9803],[138065.7714,6706852.7981],[138065.7669,6707752.4371],[137605.9491,6708202.2543],[136406.4274,6708792.0116],[135346.8488,6709541.7054],[132477.9932,6710871.1574],[131128.5369,6710411.3351],[130528.7821,6709511.693],[130698.7223,6707852.3597],[131598.3659,6706962.7212],[134157.3421,6706382.9668]]],[[[174261.2579,6704343.9881],[176190.4452,6711950.9443],[173411.5491,6714250.0076],[170712.6415,6712430.7243],[170262.8296,6710931.3238],[170422.7752,6708982.107],[171192.4791,6706433.134],[172402.0004,6705083.6818],[174261.2579,6704343.9881]]],[[[164875.0309,6703244.382],[165774.6652,6704154.0215],[165614.718,6706403.1179],[164705.0748,6708052.4514],[163495.5558,6708942.0882],[161846.2178,6708932.0839],[161056.5494,6706023.2474],[161406.4148,6704873.7105],[162925.8125,6703384.316],[164875.0309,6703244.382]]],[[[154639.14,6703034.4144],[156148.5335,6703194.3579],[157348.0475,6704103.9989],[158097.7374,6705913.2766],[158237.6729,6707562.6153],[157627.9131,6708462.2512],[156578.3329,6708752.1295],[154479.1837,6707092.7849],[153729.4975,6704533.8081],[153889.4364,6703934.0496],[154639.14,6703034.4144]]],[[[156498.4458,6692838.5159],[157548.0237,6692998.4571],[159197.3556,6694207.98],[160246.9251,6696017.2592],[159787.099,6698116.4144],[159477.2203,6698716.1721],[157817.8787,6700205.5659],[155258.9104,6699285.922],[154669.1531,6698086.4004],[155128.9862,6694637.7868],[155588.8078,6693438.2706],[156498.4458,6692838.5159]]],[[[133317.7534,6691808.8105],[134217.3923,6691818.8111],[136616.4173,6694227.8567],[137665.9862,6696187.0759],[137056.2216,6697986.3508],[135996.6422,6698885.9844],[136136.5807,6699935.5639],[137186.1519,6701444.9636],[137026.2084,6702944.3611],[135976.6266,6703534.1192],[134927.0492,6703234.2341],[133567.5993,6702324.5922],[132068.2094,6700665.2504],[131498.4482,6698676.0457],[132088.2137,6698256.2171],[133447.6735,6697216.6412],[133747.5563,6696616.8834],[133597.6218,6695567.3038],[132707.9896,6693458.1455],[132857.9348,6692408.5674],[133317.7534,6691808.8105]]],[[[150640.8175,6688750.1268],[151990.2744,6689060.0093],[153039.8477,6690119.5894],[153029.8395,6692518.6266],[152270.1344,6694467.8404],[150011.0372,6695207.532],[148661.5857,6693848.0707],[148511.6482,6693398.2505],[149731.178,6689649.761],[150640.8175,6688750.1268]]],[[[143613.6935,6677904.4431],[143903.5678,6679713.7186],[142244.2252,6681353.0521],[140884.7669,6682092.7483],[138775.6134,6682082.7414],[137576.101,6680873.2205],[138035.9234,6679523.7644],[138795.6224,6678784.0652],[140754.84,6678044.3722],[143613.6935,6677904.4431]]],[[[124953.9519,6677507.835],[126463.3463,6677517.8388],[127362.9821,6678127.5988],[127043.0965,6680826.5143],[128082.6615,6684285.1319],[127622.8306,6687283.9263],[126263.3753,6687423.8631],[124164.2292,6685164.7587],[123424.533,6683805.3004],[123124.6595,6682605.7801],[123284.6046,6680806.5028],[124044.3122,6678407.4693],[124953.9519,6677507.835]]],[[[149089.759,6677170.915],[151498.7913,6677330.8632],[152248.4842,6678540.3817],[152388.4188,6680339.6603],[151178.8918,6682738.6912],[151168.892,6683488.3903],[149959.3674,6685427.6058],[148240.0499,6686887.0113],[147840.2086,6687226.8729],[146470.761,6686677.0865],[145890.9964,6686157.2921],[145151.3032,6684208.0706],[146360.8263,6682558.7387],[148030.1795,6678070.5485],[149089.759,6677170.915]]],[[[133717.7156,6668098.3269],[135077.1678,6668548.1534],[139585.353,6669627.7437],[142134.3238,6670847.2676],[143183.8971,6671896.8518],[143333.8291,6673406.2469],[142574.1278,6674595.7656],[140764.8485,6675635.339],[138655.6941,6675775.2719],[136696.4788,6676065.1454],[134747.265,6675305.4401],[132488.1801,6673646.0943],[129489.3921,6671976.7485],[127990.0016,6670467.3463],[127690.1266,6669567.7058],[127840.0688,6669117.887],[128299.8866,6668668.0699],[129499.4077,6668218.2567],[133717.7156,6668098.3269]]],[[[120473.0305,6668018.2897],[121372.6694,6668028.2904],[122945.6348,6670289.4445],[123453.0748,6673287.9536],[122102.3438,6674335.7635],[122242.2806,6675685.2228],[123084.0275,6677393.6045],[121653.9693,6680484.3754],[120712.8638,6681532.8686],[118753.6445,6682572.4414],[117394.1892,6682712.3782],[115295.0376,6681502.8526],[113645.701,6681192.9683],[111836.4237,6681782.7223],[111920.3475,6682837.0518],[112229.88457817,6683448.60106583],[114665.2553,6688260.1383],[114805.1899,6690059.4172],[113325.7729,6692108.5875],[111936.3247,6693198.1432],[112404.75655837,6694527.49877557],[112676.0171,6695297.3049],[113725.5914,6696206.9453],[114007.88429916,6696184.74396658],[114615.2349,6696136.978],[115534.8663,6696067.0107],[117654.0292,6693528.0402],[119313.3719,6691888.7065],[120972.7069,6691748.7711],[122921.9194,6692808.356],[125780.7723,6692818.3667],[126980.2802,6694927.5266],[127719.9741,6696736.8044],[127581.7911,6700505.19],[126950.2539,6702434.5144],[125130.9701,6705123.4263],[125060.9968,6705403.3137],[124986.54314975,6705735.24495113],[124821.0876,6706472.8833],[123911.4411,6708721.9763],[121342.465,6710061.4259],[119523.1797,6713050.2176],[117863.8408,6713949.8483],[116354.4449,6714239.7244],[115814.6607,6714389.6615],[114195.3078,6714879.4568],[112954.91973268,6716151.8007698],[110316.8436,6718857.8412],[108507.5649,6719747.4752],[107148.1117,6719437.5927],[105048.9599,6718228.0673],[103249.6915,6716268.8441],[101760.3011,6713859.8028],[101340.4727,6713230.0533],[101510.4081,6712540.3308],[102819.8883,6711460.7705],[104629.1633,6711320.8358],[105538.8014,6710721.081],[107589.64,6709342.62],[106908.2772,6705783.0689],[106618.4005,6704423.6127],[105568.8284,6703064.1527],[103459.6742,6703124.1179],[103599.6009,6706482.7713],[103471.305,6709256.637],[100870.6794,6709651.4864],[98621.5931,6707382.3851],[98021.8351,6707082.5023],[95612.8023,6706912.5582],[92735.27391844,6707382.83166021],[92004.2466,6707502.3032],[90344.9183,6706292.7798],[87646.0078,6704923.3153],[85236.9787,6704003.6718],[84037.4643,6703104.0265],[83747.5891,6701444.6905],[84657.2273,6700854.9317],[86316.5664,6699965.297],[86166.6328,6698755.7813],[85277.0011,6696506.6788],[85287.008,6694397.5248],[85746.8337,6692448.3089],[86806.4172,6690808.9719],[88915.5704,6690968.9187],[89955.1395,6693677.8375],[90854.7755,6694277.6016],[92064.295,6693387.9647],[93475.00784605,6693318.91613057],[94923.149,6693248.0356],[95223.0302,6692958.1534],[95982.7278,6692508.3377],[97642.0754,6689969.3647],[97651.76824224,6688216.59272975],[97652.0807,6688160.0905],[98421.7867,6685311.2373],[100990.7655,6683531.9643],[103399.8006,6683242.0931],[104599.3225,6682642.3399],[104828.86441691,6682608.58498026],[105279.0504,6682542.3836],[105508.9584,6682502.4008],[105978.7972,6677254.5085],[106519.5818,6676964.6276],[107238.293,6677042.6001],[110213.5039,6677808.7827],[111073.10765867,6677607.84164477],[112456.1985,6677284.5302],[115025.1795,6675045.4419],[116534.5864,6672656.4082],[117304.2877,6670707.1943],[119403.4447,6670867.1411],[119713.3219,6670567.263],[120023.2094,6668318.1671],[120473.0305,6668018.2897]]],[[[159517.426,6655773.4083],[161016.8241,6655783.4122],[161916.4574,6656842.9916],[162816.0916,6657742.6351],[164325.4841,6658052.5187],[164775.302,6658352.4006],[165674.9338,6659711.8596],[165814.869,6661361.1983],[164905.2302,6662110.8926],[162796.0729,6662850.5847],[160836.8594,6662840.5785],[158737.7059,6662080.8725],[157088.3758,6660571.4697],[156788.4993,6659961.7129],[156488.6252,6658912.1326],[156948.4461,6657862.5563],[159517.426,6655773.4083]]]]},"geometry_name":"geom","properties":{"id":19,"maakunta":"21","vuosi":2026,"nimi":"Ahvenanmaa","namn":"Åland","name":"Åland"},"bbox":[83747.5891,6655773.4083,177816.4118,6728220.599]}],"totalFeatures":19,"numberMatched":19,"numberReturned":19,"timeStamp":"2026-09-05T09:22:24.803Z","crs":{"type":"name","properties":{"name":"urn:ogc:def:crs:EPSG::3067"}},"bbox":[83747.5891,6637031.5271,732907.7,7776430.911]}